{
  "type": "FeatureCollection",
  "name": "20260725_UAS_Zones_Ireland_V1",
  "datasetMetadata": {
    "provider": "Irish Aviation Authority",
    "issued": "2026-07-25T13:00:00+00:00",
    "validFrom": "2026-07-25T13:00:00+00:00",
    "technicalLimitation": null
  },
  "features": [
    {
      "type": "Feature",
      "properties": {
        "identifier": "U74",
        "country": "IRL",
        "name": "Cork Model Aero Club 2",
        "type": "CONDITIONAL",
        "variant": "CUSTOMIZED",
        "restrictionConditions": "PERMITTED/MODEL AIRCRAFT=YES",
        "reason": "OTHER",
        "otherReasonInfo": "Exemption Zone",
        "regulationExemption": null,
        "message": "Model Aircraft are exempt from the restrictions of the UAS Geographical Zone within which the exemption zone resides.",
        "region": null,
        "zoneAuthority": [
          {
            "purpose": "AUTHORIZATION",
            "intervalBefore": null,
            "name": "AirNav Ireland",
            "service": "Cork ATC",
            "contactName": null,
            "siteURL": null,
            "email": "suaairspace@airnav.ie",
            "phone": null
          }
        ]
      },
      "geometry": {
        "type": "MultiPolygon",
        "coordinates": [
          [
            [
              [
                -8.720114387999956,
                51.78718933000005
              ],
              [
                -8.719829862999973,
                51.78718890600004
              ],
              [
                -8.71954544099998,
                51.787184151000076
              ],
              [
                -8.719261292999931,
                51.78717506800007
              ],
              [
                -8.718977589999952,
                51.787161662000074
              ],
              [
                -8.718694502999938,
                51.78714394100007
              ],
              [
                -8.718412202999957,
                51.787121917000036
              ],
              [
                -8.718130858999928,
                51.78709560100003
              ],
              [
                -8.717850641999974,
                51.78706501100004
              ],
              [
                -8.717571720999956,
                51.78703016500003
              ],
              [
                -8.717294261999939,
                51.78699108300003
              ],
              [
                -8.717018434999943,
                51.786947790000056
              ],
              [
                -8.71674440399994,
                51.78690031100007
              ],
              [
                -8.716472334999935,
                51.786848674000055
              ],
              [
                -8.716202391999957,
                51.78679291200007
              ],
              [
                -8.715934736999941,
                51.78673305700005
              ],
              [
                -8.715669532999925,
                51.786669147000055
              ],
              [
                -8.715406937999944,
                51.786601218000044
              ],
              [
                -8.715147109999975,
                51.78652931200003
              ],
              [
                -8.714890207999929,
                51.78645347300005
              ],
              [
                -8.71463638399996,
                51.78637374600004
              ],
              [
                -8.714385792999963,
                51.78629017900005
              ],
              [
                -8.714138584999944,
                51.78620282300005
              ],
              [
                -8.713894908999976,
                51.78611173000007
              ],
              [
                -8.713654911999981,
                51.786016955000036
              ],
              [
                -8.713418738999962,
                51.78591855600007
              ],
              [
                -8.713186530999963,
                51.78581659100007
              ],
              [
                -8.712958429999958,
                51.785711122000066
              ],
              [
                -8.712734570999942,
                51.78560221200007
              ],
              [
                -8.712515089999954,
                51.78548992800006
              ],
              [
                -8.712300119999952,
                51.785374336000075
              ],
              [
                -8.712089789999936,
                51.785255507000045
              ],
              [
                -8.711884224999949,
                51.78513351200007
              ],
              [
                -8.711683551999954,
                51.78500842400007
              ],
              [
                -8.711487888999955,
                51.78488031900008
              ],
              [
                -8.711297355999932,
                51.78474927500008
              ],
              [
                -8.711112065999941,
                51.78461537000004
              ],
              [
                -8.710932131999925,
                51.78447868400008
              ],
              [
                -8.710757660999946,
                51.784339301000045
              ],
              [
                -8.710588758999961,
                51.78419730300004
              ],
              [
                -8.710425527999973,
                51.784052778000046
              ],
              [
                -8.71026806599997,
                51.78390581100007
              ],
              [
                -8.710116466999978,
                51.78375649100008
              ],
              [
                -8.709970822999935,
                51.783604909000076
              ],
              [
                -8.709831221999934,
                51.78345115500008
              ],
              [
                -8.70969774799994,
                51.78329532300006
              ],
              [
                -8.709570480999957,
                51.78313750600006
              ],
              [
                -8.70944949699998,
                51.78297779800005
              ],
              [
                -8.709334869999964,
                51.78281629800006
              ],
              [
                -8.709226667999928,
                51.78265310100005
              ],
              [
                -8.709124956999972,
                51.78248830600006
              ],
              [
                -8.70902979799996,
                51.782322013000055
              ],
              [
                -8.708941246999927,
                51.782154321000064
              ],
              [
                -8.708859358999973,
                51.781985331000044
              ],
              [
                -8.708784182999977,
                51.78181514600004
              ],
              [
                -8.708715763999976,
                51.78164386800006
              ],
              [
                -8.708654141999943,
                51.78147160000003
              ],
              [
                -8.708599354999933,
                51.78129844600005
              ],
              [
                -8.708551436999926,
                51.78112451000004
              ],
              [
                -8.708510414999978,
                51.78094989700003
              ],
              [
                -8.708476313999938,
                51.78077471200004
              ],
              [
                -8.708449154999926,
                51.78059906100003
              ],
              [
                -8.708428954999931,
                51.780423049000035
              ],
              [
                -8.708415723999963,
                51.78024678300005
              ],
              [
                -8.708409471999971,
                51.780070368000054
              ],
              [
                -8.708410200999936,
                51.779893911000045
              ],
              [
                -8.70841791099997,
                51.77971751900003
              ],
              [
                -8.708432597999945,
                51.77954129700004
              ],
              [
                -8.708454252999957,
                51.77936535200007
              ],
              [
                -8.708482861999926,
                51.77918978900004
              ],
              [
                -8.708518407999975,
                51.77901471500007
              ],
              [
                -8.708560869999928,
                51.77884023400003
              ],
              [
                -8.708610220999958,
                51.77866645300003
              ],
              [
                -8.708666432999962,
                51.77849347500006
              ],
              [
                -8.70872947099997,
                51.77832140500004
              ],
              [
                -8.708799296999928,
                51.778150346000075
              ],
              [
                -8.708875869999929,
                51.777980401000036
              ],
              [
                -8.70895914199997,
                51.77781167400008
              ],
              [
                -8.709049063999942,
                51.77764426500005
              ],
              [
                -8.709145580999973,
                51.77747827500008
              ],
              [
                -8.709248635999927,
                51.77731380400007
              ],
              [
                -8.70935816499997,
                51.777150952000056
              ],
              [
                -8.70947410399998,
                51.776989815000036
              ],
              [
                -8.709596380999926,
                51.776830493000034
              ],
              [
                -8.709724924999932,
                51.776673079000034
              ],
              [
                -8.709859655999935,
                51.77651767000003
              ],
              [
                -8.710000493999928,
                51.77636435800008
              ],
              [
                -8.710147352999968,
                51.776213237000036
              ],
              [
                -8.710300145999952,
                51.77606439700003
              ],
              [
                -8.710458780999943,
                51.77591792700008
              ],
              [
                -8.710623160999944,
                51.77577391600005
              ],
              [
                -8.710793187999968,
                51.775632451000035
              ],
              [
                -8.710968758999968,
                51.77549361600006
              ],
              [
                -8.711149767999927,
                51.77535749600003
              ],
              [
                -8.711336106999966,
                51.775224173000026
              ],
              [
                -8.71152766299997,
                51.77509372600008
              ],
              [
                -8.711724320999963,
                51.77496623400003
              ],
              [
                -8.711925961999953,
                51.77484177500003
              ],
              [
                -8.712132464999968,
                51.77472042200003
              ],
              [
                -8.712343705999956,
                51.774602249000054
              ],
              [
                -8.712559555999974,
                51.77448732700003
              ],
              [
                -8.712779886999954,
                51.77437572600007
              ],
              [
                -8.713004564999949,
                51.77426751300004
              ],
              [
                -8.713233455999955,
                51.77416275200005
              ],
              [
                -8.713466419999975,
                51.774061507000056
              ],
              [
                -8.713703318999933,
                51.77396383800004
              ],
              [
                -8.713944008999931,
                51.77386980500006
              ],
              [
                -8.714188345999958,
                51.773779465000075
              ],
              [
                -8.714436181999929,
                51.77369287100004
              ],
              [
                -8.714687367999943,
                51.77361007600007
              ],
              [
                -8.714941751999959,
                51.77353112900005
              ],
              [
                -8.715199182999982,
                51.77345607900003
              ],
              [
                -8.715459502999977,
                51.77338496900006
              ],
              [
                -8.715722557999982,
                51.773317844000076
              ],
              [
                -8.715988187999926,
                51.77325474400004
              ],
              [
                -8.716256233999957,
                51.77319570600008
              ],
              [
                -8.716526532999978,
                51.77314076600004
              ],
              [
                -8.716798923999932,
                51.77308995700008
              ],
              [
                -8.71707324199997,
                51.77304331000005
              ],
              [
                -8.71734932299995,
                51.77300085300004
              ],
              [
                -8.717626998999947,
                51.77296261100008
              ],
              [
                -8.717906103999951,
                51.77292860700004
              ],
              [
                -8.718186469999978,
                51.77289886300008
              ],
              [
                -8.71846792699995,
                51.77287339500003
              ],
              [
                -8.718750306999937,
                51.77285221900007
              ],
              [
                -8.71903343899993,
                51.77283534900005
              ],
              [
                -8.719317153999953,
                51.772822793000046
              ],
              [
                -8.71960127899996,
                51.77281456000003
              ],
              [
                -8.719885644999977,
                51.77281065400007
              ],
              [
                -8.720170078999956,
                51.772811079000064
              ],
              [
                -8.720454410999935,
                51.77281583300004
              ],
              [
                -8.720738468999969,
                51.77282491400007
              ],
              [
                -8.72102208299998,
                51.77283831600005
              ],
              [
                -8.721305080999969,
                51.77285603100006
              ],
              [
                -8.72158729299997,
                51.77287804900004
              ],
              [
                -8.721868549999954,
                51.77290435700007
              ],
              [
                -8.722148681999954,
                51.77293493700006
              ],
              [
                -8.72242751999994,
                51.77296977300006
              ],
              [
                -8.722704895999925,
                51.77300884300007
              ],
              [
                -8.72298064399996,
                51.77305212400006
              ],
              [
                -8.723254596999936,
                51.773099589000026
              ],
              [
                -8.723526590999938,
                51.77315121000004
              ],
              [
                -8.723796461999939,
                51.77320695600008
              ],
              [
                -8.724064045999967,
                51.77326679300006
              ],
              [
                -8.724329183999942,
                51.773330685000076
              ],
              [
                -8.724591714999974,
                51.77339859400007
              ],
              [
                -8.724851480999973,
                51.77347048000007
              ],
              [
                -8.72510832599994,
                51.77354629700005
              ],
              [
                -8.72536209599997,
                51.77362600200007
              ],
              [
                -8.725612636999927,
                51.77370954600008
              ],
              [
                -8.72585979799993,
                51.77379687800004
              ],
              [
                -8.726103430999956,
                51.77388794700005
              ],
              [
                -8.726343388999965,
                51.773982696000076
              ],
              [
                -8.726579527999945,
                51.77408107000008
              ],
              [
                -8.726811704999932,
                51.77418300900007
              ],
              [
                -8.727039779999927,
                51.774288452000064
              ],
              [
                -8.727263616999949,
                51.77439733500006
              ],
              [
                -8.727483079999956,
                51.77450959200007
              ],
              [
                -8.727698036999925,
                51.77462515600007
              ],
              [
                -8.72790835799998,
                51.774743957000055
              ],
              [
                -8.728113917999963,
                51.77486592500003
              ],
              [
                -8.728314590999958,
                51.774990984000056
              ],
              [
                -8.728510257999972,
                51.775119061000055
              ],
              [
                -8.728700800999945,
                51.775250078000056
              ],
              [
                -8.72888610299998,
                51.77538395600004
              ],
              [
                -8.729066054999976,
                51.77552061400007
              ],
              [
                -8.72924054799995,
                51.77565997000005
              ],
              [
                -8.729409475999944,
                51.775801941000054
              ],
              [
                -8.729572736999955,
                51.77594644000004
              ],
              [
                -8.72973023399993,
                51.776093382000056
              ],
              [
                -8.729881870999975,
                51.77624267600004
              ],
              [
                -8.730027556999971,
                51.776394234000065
              ],
              [
                -8.73016720499993,
                51.77654796300004
              ],
              [
                -8.730300728999964,
                51.776703772000076
              ],
              [
                -8.730428050999933,
                51.776861567000026
              ],
              [
                -8.730549090999943,
                51.77702125300004
              ],
              [
                -8.73066377899994,
                51.77718273200003
              ],
              [
                -8.73077204499998,
                51.777345909000076
              ],
              [
                -8.730873822999968,
                51.77751068500004
              ],
              [
                -8.730969051999978,
                51.777676961000054
              ],
              [
                -8.731057674999931,
                51.777844636000054
              ],
              [
                -8.731139637999945,
                51.77801361000007
              ],
              [
                -8.731214891999969,
                51.77818378100005
              ],
              [
                -8.731283390999977,
                51.77835504500007
              ],
              [
                -8.731345093999948,
                51.778527301000054
              ],
              [
                -8.731399963999934,
                51.77870044500003
              ],
              [
                -8.73144796799994,
                51.77887437100003
              ],
              [
                -8.731489075999946,
                51.77904897600007
              ],
              [
                -8.731523264999964,
                51.779224154000076
              ],
              [
                -8.731550511999956,
                51.77939979900003
              ],
              [
                -8.731570801999965,
                51.77957580700007
              ],
              [
                -8.731584122999948,
                51.77975207000003
              ],
              [
                -8.731590465999943,
                51.77992848300005
              ],
              [
                -8.731589826999937,
                51.78010494000006
              ],
              [
                -8.731582206999974,
                51.78028133300006
              ],
              [
                -8.731567609999956,
                51.78045755800008
              ],
              [
                -8.73154604499996,
                51.78063350700006
              ],
              [
                -8.731517524999958,
                51.780809075000036
              ],
              [
                -8.731482065999955,
                51.780984156000045
              ],
              [
                -8.731439690999935,
                51.78115864400007
              ],
              [
                -8.731390424999972,
                51.78133243500008
              ],
              [
                -8.731334295999943,
                51.781505423000056
              ],
              [
                -8.731271339999978,
                51.78167750500006
              ],
              [
                -8.73120159399997,
                51.78184857700006
              ],
              [
                -8.73112509899994,
                51.78201853500008
              ],
              [
                -8.731041901999959,
                51.78218727800004
              ],
              [
                -8.730952052999953,
                51.782354704000056
              ],
              [
                -8.730855604999931,
                51.782520711000075
              ],
              [
                -8.73075261799994,
                51.78268520000006
              ],
              [
                -8.73064315199997,
                51.782848072000036
              ],
              [
                -8.730527274999929,
                51.78300922900007
              ],
              [
                -8.73040505399996,
                51.78316857300007
              ],
              [
                -8.73027656499994,
                51.78332600900006
              ],
              [
                -8.730141884999966,
                51.78348144100005
              ],
              [
                -8.730001092999942,
                51.78363477600004
              ],
              [
                -8.729854275999969,
                51.78378592200005
              ],
              [
                -8.72970152199997,
                51.78393478800007
              ],
              [
                -8.72954292199995,
                51.784081283000035
              ],
              [
                -8.729378572999963,
                51.784225320000075
              ],
              [
                -8.729208571999948,
                51.78436681200003
              ],
              [
                -8.729033022999943,
                51.78450567300007
              ],
              [
                -8.728852030999974,
                51.78464182100004
              ],
              [
                -8.728665705999958,
                51.78477517200008
              ],
              [
                -8.728474158999973,
                51.78490564600003
              ],
              [
                -8.728277505999927,
                51.78503316600006
              ],
              [
                -8.728075864999937,
                51.785157653000056
              ],
              [
                -8.727869356999975,
                51.78527903400004
              ],
              [
                -8.727658107999957,
                51.78539723400007
              ],
              [
                -8.727442244999963,
                51.78551218300004
              ],
              [
                -8.727221895999946,
                51.78562381200004
              ],
              [
                -8.726997195999957,
                51.78573205300006
              ],
              [
                -8.72676827999993,
                51.78583684000006
              ],
              [
                -8.726535283999965,
                51.78593811200005
              ],
              [
                -8.726298350999969,
                51.78603580600003
              ],
              [
                -8.726057621999928,
                51.78612986400003
              ],
              [
                -8.725813242999948,
                51.78622022900004
              ],
              [
                -8.725565360999951,
                51.78630684700005
              ],
              [
                -8.725314124999954,
                51.78638966500006
              ],
              [
                -8.725059686999941,
                51.78646863500006
              ],
              [
                -8.724802198999953,
                51.78654370700008
              ],
              [
                -8.724541817999977,
                51.78661483700006
              ],
              [
                -8.724278698999967,
                51.78668198200006
              ],
              [
                -8.724013001999936,
                51.786745101000065
              ],
              [
                -8.723744886999953,
                51.78680415700006
              ],
              [
                -8.723474514999964,
                51.78685911400004
              ],
              [
                -8.723202048999951,
                51.786909938000065
              ],
              [
                -8.722927652999942,
                51.78695660000005
              ],
              [
                -8.722651492999944,
                51.786999070000036
              ],
              [
                -8.722373734999962,
                51.78703732400004
              ],
              [
                -8.722094546999926,
                51.78707133800003
              ],
              [
                -8.721814095999946,
                51.78710109200006
              ],
              [
                -8.721532551999928,
                51.787126568000076
              ],
              [
                -8.721250083999962,
                51.78714775100008
              ],
              [
                -8.720966862999944,
                51.78716462700004
              ],
              [
                -8.720683058999953,
                51.787177187000054
              ],
              [
                -8.72039884399993,
                51.78718542300004
              ],
              [
                -8.720114387999956,
                51.78718933000005
              ]
            ]
          ]
        ],
        "layer": {
          "upper": 400.0,
          "upperReference": "AGL",
          "lower": 0.0,
          "lowerReference": "AGL",
          "uom": "ft"
        }
      }
    },
    {
      "type": "Feature",
      "properties": {
        "identifier": "U5",
        "country": "IRL",
        "name": "EID5 GLEN OF IMAAL, CO. WICKLOW",
        "type": "REQ_AUTHORIZATION",
        "variant": "COMMON",
        "restrictionConditions": null,
        "reason": "SENSITIVE",
        "otherReasonInfo": "Sensitive",
        "regulationExemption": null,
        "message": "Access may be requested through the zone authority for Open & Specific Category\r\noperations. Allow at least three working days.",
        "region": null,
        "zoneAuthority": [
          {
            "purpose": "AUTHORIZATION",
            "intervalBefore": null,
            "name": "Defence Forces Ireland - Air Corps",
            "service": "Air Corps",
            "contactName": null,
            "siteURL": null,
            "email": "airspaceandobstacles@defenceforces.ie",
            "phone": null
          }
        ]
      },
      "geometry": {
        "type": "MultiPolygon",
        "coordinates": [
          [
            [
              [
                -6.405271564999964,
                53.04666611300007
              ],
              [
                -6.40645544299997,
                53.01472185600005
              ],
              [
                -6.407637079999972,
                52.98277740800006
              ],
              [
                -6.408816481999963,
                52.950832769000044
              ],
              [
                -6.409993653999948,
                52.91888793800007
              ],
              [
                -6.431438213999968,
                52.92282503200005
              ],
              [
                -6.452886736999972,
                52.92675828100005
              ],
              [
                -6.474339218999944,
                52.93068768400008
              ],
              [
                -6.495795656999974,
                52.934613238000054
              ],
              [
                -6.517256045999943,
                52.93853494200005
              ],
              [
                -6.538720384999976,
                52.942452794000076
              ],
              [
                -6.560188667999967,
                52.94636679300004
              ],
              [
                -6.581660892999935,
                52.95027693700007
              ],
              [
                -6.5765271989999405,
                52.96458295000008
              ],
              [
                -6.571390029999975,
                52.978888684000026
              ],
              [
                -6.566249379999931,
                52.99319414000007
              ],
              [
                -6.561105246999944,
                53.007499316000064
              ],
              [
                -6.547635459999981,
                53.015416791000064
              ],
              [
                -6.534160742999973,
                53.02333269500008
              ],
              [
                -6.518057072999966,
                53.02625706900005
              ],
              [
                -6.501951263999956,
                53.02917924500008
              ],
              [
                -6.485843315999944,
                53.032099223000046
              ],
              [
                -6.469733232999943,
                53.035017002000075
              ],
              [
                -6.453621013999964,
                53.037932581000064
              ],
              [
                -6.437506661999976,
                53.04084596000007
              ],
              [
                -6.421390178999957,
                53.043757138000046
              ],
              [
                -6.405271564999964,
                53.04666611300007
              ]
            ]
          ]
        ],
        "layer": {
          "upper": 40000.0,
          "upperReference": "AMSL",
          "lower": 0.0,
          "lowerReference": "AGL",
          "uom": "ft"
        }
      }
    },
    {
      "type": "Feature",
      "properties": {
        "identifier": "T43",
        "country": "IRL",
        "name": "Rush Airshow",
        "type": "REQ_AUTHORIZATION",
        "variant": "COMMON",
        "restrictionConditions": null,
        "reason": "AIR_TRAFFIC",
        "otherReasonInfo": null,
        "regulationExemption": null,
        "message": "Access may be requested through the zone authority.",
        "region": null,
        "zoneAuthority": [
          {
            "purpose": "AUTHORIZATION",
            "intervalBefore": null,
            "name": "Millennium Aviation Event Solutions",
            "service": null,
            "contactName": null,
            "siteURL": null,
            "email": null,
            "phone": "+353 86 856 3905"
          }
        ],
        "limitedApplicability": [
          {
            "startDateTime": "2026-08-02T10:00:00+00:00",
            "endDateTime": "2026-08-02T17:00:00+00:00"
          }
        ]
      },
      "geometry": {
        "type": "MultiPolygon",
        "coordinates": [
          [
            [
              [
                -6.0749098909999475,
                53.49850245200008
              ],
              [
                -6.0951935679999565,
                53.49837692300008
              ],
              [
                -6.115477206999969,
                53.498247950000064
              ],
              [
                -6.135760804999961,
                53.49811553300003
              ],
              [
                -6.156044357999974,
                53.49797967200004
              ],
              [
                -6.176327861999937,
                53.49784036600005
              ],
              [
                -6.196611311999959,
                53.49769761700003
              ],
              [
                -6.216894703999969,
                53.49755142300006
              ],
              [
                -6.237178033999953,
                53.49740178600007
              ],
              [
                -6.23751851399993,
                53.49741017500003
              ],
              [
                -6.237858573999972,
                53.49742329500003
              ],
              [
                -6.2381980279999425,
                53.497441139000045
              ],
              [
                -6.238536692999958,
                53.49746369600007
              ],
              [
                -6.238874383999928,
                53.497490955000046
              ],
              [
                -6.239210917999969,
                53.49752290100008
              ],
              [
                -6.2395461109999815,
                53.49755951600008
              ],
              [
                -6.239879782999935,
                53.49760078000003
              ],
              [
                -6.240211750999947,
                53.49764667200003
              ],
              [
                -6.2405418339999414,
                53.497697165000034
              ],
              [
                -6.240869854999971,
                53.497752234000075
              ],
              [
                -6.241195632999961,
                53.49781184700004
              ],
              [
                -6.241518992999943,
                53.49787597200003
              ],
              [
                -6.241839757999969,
                53.497944575000076
              ],
              [
                -6.242157754999937,
                53.49801761800006
              ],
              [
                -6.242472809999981,
                53.49809506200006
              ],
              [
                -6.242784750999931,
                53.49817686400007
              ],
              [
                -6.243093410999961,
                53.49826298000005
              ],
              [
                -6.243398619999937,
                53.498353363000035
              ],
              [
                -6.243700212999954,
                53.498447964000036
              ],
              [
                -6.243998025999929,
                53.49854673200008
              ],
              [
                -6.244291897999972,
                53.498649613000055
              ],
              [
                -6.244581666999977,
                53.49875655100004
              ],
              [
                -6.244867177999936,
                53.49886748800003
              ],
              [
                -6.245148273999973,
                53.49898236300004
              ],
              [
                -6.245424801999945,
                53.49910111500003
              ],
              [
                -6.2456966139999395,
                53.49922367800008
              ],
              [
                -6.245963558999961,
                53.49934998700007
              ],
              [
                -6.246225494999976,
                53.499479972000074
              ],
              [
                -6.246482277999974,
                53.49961356300008
              ],
              [
                -6.246733767999956,
                53.49975068600003
              ],
              [
                -6.24697982899994,
                53.499891269000045
              ],
              [
                -6.2472203269999795,
                53.50003523300006
              ],
              [
                -6.247455130999981,
                53.50018250200003
              ],
              [
                -6.247684113999981,
                53.500332995000065
              ],
              [
                -6.247907150999936,
                53.50048662900008
              ],
              [
                -6.248124119999943,
                53.50064332200003
              ],
              [
                -6.2483349039999325,
                53.50080298900008
              ],
              [
                -6.248539388999973,
                53.50096554300006
              ],
              [
                -6.248737461999951,
                53.50113089400003
              ],
              [
                -6.248929015999977,
                53.50129895400005
              ],
              [
                -6.249113946999955,
                53.50146963100008
              ],
              [
                -6.249292154999978,
                53.50164283300006
              ],
              [
                -6.249463540999955,
                53.50181846400005
              ],
              [
                -6.2496280139999385,
                53.501996431000066
              ],
              [
                -6.249785483999972,
                53.50217663500007
              ],
              [
                -6.249935863999951,
                53.502358979000064
              ],
              [
                -6.250079072999938,
                53.502543364000076
              ],
              [
                -6.25021503399995,
                53.502729689000034
              ],
              [
                -6.250343670999939,
                53.50291785400003
              ],
              [
                -6.250464915999942,
                53.50310775600008
              ],
              [
                -6.250522744999955,
                53.50320332600006
              ],
              [
                -6.2505787019999275,
                53.503299291000076
              ],
              [
                -6.250632777999954,
                53.503395639000075
              ],
              [
                -6.2506849659999375,
                53.50349235700003
              ],
              [
                -6.250735259999942,
                53.503589430000034
              ],
              [
                -6.250783651999939,
                53.50368684600005
              ],
              [
                -6.250830135999934,
                53.503784593000034
              ],
              [
                -6.250874705999934,
                53.50388265500004
              ],
              [
                -6.250917354999956,
                53.50398102100007
              ],
              [
                -6.25095807699995,
                53.50407967600006
              ],
              [
                -6.250996866999969,
                53.504178608000075
              ],
              [
                -6.251033720999942,
                53.504277803000036
              ],
              [
                -6.251068631999942,
                53.504377247000036
              ],
              [
                -6.251101595999955,
                53.50447692700004
              ],
              [
                -6.251132607999978,
                53.504576830000076
              ],
              [
                -6.251161664999927,
                53.50467694100007
              ],
              [
                -6.25118876099998,
                53.50477724700005
              ],
              [
                -6.251213894999978,
                53.504877735000036
              ],
              [
                -6.251237061999973,
                53.504978391000066
              ],
              [
                -6.25125825799995,
                53.50507920100006
              ],
              [
                -6.251277481999978,
                53.50518015100005
              ],
              [
                -6.251294729999927,
                53.50528122800006
              ],
              [
                -6.251309999999933,
                53.50538241900006
              ],
              [
                -6.251323290999949,
                53.50548370800004
              ],
              [
                -6.251334598999961,
                53.50558508300003
              ],
              [
                -6.251343923999968,
                53.50568653000005
              ],
              [
                -6.251351264999926,
                53.505788034000034
              ],
              [
                -6.251356619999967,
                53.505889583000055
              ],
              [
                -6.251359987999933,
                53.50599116200004
              ],
              [
                -6.251361369999927,
                53.50609275800008
              ],
              [
                -6.251360763999969,
                53.50619435600004
              ],
              [
                -6.251358171999925,
                53.506295943000055
              ],
              [
                -6.251353592999976,
                53.50639750500005
              ],
              [
                -6.251347027999941,
                53.506499029000054
              ],
              [
                -6.251338476999933,
                53.50660049900006
              ],
              [
                -6.251327942999978,
                53.50670190400007
              ],
              [
                -6.251315425999962,
                53.50680322800008
              ],
              [
                -6.251300927999978,
                53.506904459000054
              ],
              [
                -6.251284450999947,
                53.50700558200003
              ],
              [
                -6.251265997999951,
                53.50710658300005
              ],
              [
                -6.2512455699999805,
                53.50720745000007
              ],
              [
                -6.2512231709999355,
                53.507308167000076
              ],
              [
                -6.251198802999966,
                53.50740872200004
              ],
              [
                -6.251172469999972,
                53.50750910100004
              ],
              [
                -6.251144174999979,
                53.50760929000006
              ],
              [
                -6.251113922999934,
                53.50770927500008
              ],
              [
                -6.251081716999977,
                53.507809044000055
              ],
              [
                -6.25104756199994,
                53.50790858100004
              ],
              [
                -6.251011461999951,
                53.50800787500003
              ],
              [
                -6.250973422999948,
                53.50810691100003
              ],
              [
                -6.250933448999945,
                53.508205676000046
              ],
              [
                -6.250891544999945,
                53.508304156000065
              ],
              [
                -6.250847717999932,
                53.50840233800005
              ],
              [
                -6.250801973999955,
                53.50850020900003
              ],
              [
                -6.250754317999963,
                53.50859775500004
              ],
              [
                -6.250704757999927,
                53.50869496300004
              ],
              [
                -6.250653298999964,
                53.508791821000045
              ],
              [
                -6.250599948999934,
                53.508888314000046
              ],
              [
                -6.250544714999933,
                53.508984429000066
              ],
              [
                -6.2504876049999325,
                53.50908015500005
              ],
              [
                -6.25036778599997,
                53.50927038100008
              ],
              [
                -6.250240558999963,
                53.509458891000065
              ],
              [
                -6.250105989999952,
                53.50964558100003
              ],
              [
                -6.24996415499993,
                53.509830349000026
              ],
              [
                -6.2498151289999555,
                53.51001309600008
              ],
              [
                -6.2496589949999475,
                53.510193721000064
              ],
              [
                -6.249495835999937,
                53.51037212700004
              ],
              [
                -6.24932574099995,
                53.510548216000075
              ],
              [
                -6.249148802999969,
                53.51072189300004
              ],
              [
                -6.248965117999944,
                53.51089306400007
              ],
              [
                -6.248774785999956,
                53.51106163400004
              ],
              [
                -6.248577909999938,
                53.51122751200006
              ],
              [
                -6.248374597999941,
                53.511390609000046
              ],
              [
                -6.248164958999951,
                53.51155083500004
              ],
              [
                -6.247949107999943,
                53.511708104000036
              ],
              [
                -6.247727161999933,
                53.51186232900005
              ],
              [
                -6.247499240999957,
                53.512013427000056
              ],
              [
                -6.247265470999935,
                53.51216131600006
              ],
              [
                -6.247025976999964,
                53.51230591500007
              ],
              [
                -6.246780889999968,
                53.512447146000056
              ],
              [
                -6.246530342999961,
                53.51258493100005
              ],
              [
                -6.246274472999971,
                53.512719196000035
              ],
              [
                -6.246013418999951,
                53.51284986700006
              ],
              [
                -6.245747321999943,
                53.51297687500005
              ],
              [
                -6.245476327999938,
                53.51310014900008
              ],
              [
                -6.245200582999928,
                53.513219622000065
              ],
              [
                -6.244920238999953,
                53.51333523000005
              ],
              [
                -6.244635445999961,
                53.51344690900004
              ],
              [
                -6.244346360999941,
                53.51355459900003
              ],
              [
                -6.244053139999949,
                53.51365824100003
              ],
              [
                -6.24375594299994,
                53.51375777900006
              ],
              [
                -6.243454930999974,
                53.513853159000064
              ],
              [
                -6.243150268999955,
                53.513944329000026
              ],
              [
                -6.242842121999956,
                53.514031239000076
              ],
              [
                -6.242530656999975,
                53.51411384200003
              ],
              [
                -6.242216044999964,
                53.51419209200003
              ],
              [
                -6.241898454999955,
                53.51426594800006
              ],
              [
                -6.241578061999974,
                53.514335370000026
              ],
              [
                -6.241255038999952,
                53.51440031900006
              ],
              [
                -6.240929562999952,
                53.51446075900003
              ],
              [
                -6.240601808999941,
                53.51451665900004
              ],
              [
                -6.240271956999948,
                53.51456798800007
              ],
              [
                -6.239940185999956,
                53.514614718000075
              ],
              [
                -6.239606675999937,
                53.51465682300005
              ],
              [
                -6.239271608999957,
                53.51469428100006
              ],
              [
                -6.238935167999955,
                53.51472707100004
              ],
              [
                -6.23859753499994,
                53.51475517500006
              ],
              [
                -6.220026777999976,
                53.52128073100005
              ],
              [
                -6.2014503559999525,
                53.52780334700003
              ],
              [
                -6.182868267999936,
                53.53432302200008
              ],
              [
                -6.164280513999927,
                53.54083975300006
              ],
              [
                -6.145687093999925,
                53.54735353800004
              ],
              [
                -6.12708800799993,
                53.553864376000035
              ],
              [
                -6.108483254999953,
                53.56037226500007
              ],
              [
                -6.089872835999927,
                53.56687720100007
              ],
              [
                -6.089198903999943,
                53.56689255400005
              ],
              [
                -6.0885247169999275,
                53.56690324700003
              ],
              [
                -6.08785036699993,
                53.56690927900007
              ],
              [
                -6.087175944999956,
                53.56691064900008
              ],
              [
                -6.086501541999951,
                53.56690735700005
              ],
              [
                -6.085827248999976,
                53.566899404000026
              ],
              [
                -6.085153156999979,
                53.56688679100006
              ],
              [
                -6.084479355999974,
                53.56686951900008
              ],
              [
                -6.083805937999955,
                53.566847590000066
              ],
              [
                -6.083132993999925,
                53.56682100800003
              ],
              [
                -6.082460613999956,
                53.566789776000064
              ],
              [
                -6.081788888999938,
                53.56675389900005
              ],
              [
                -6.0811179109999784,
                53.566713381000056
              ],
              [
                -6.080447767999942,
                53.56666822700004
              ],
              [
                -6.0797785519999366,
                53.56661844400003
              ],
              [
                -6.079110352999976,
                53.56656403900007
              ],
              [
                -6.078443261999951,
                53.56650501900003
              ],
              [
                -6.077777367999943,
                53.56644139100007
              ],
              [
                -6.077112759999977,
                53.56637316500007
              ],
              [
                -6.076449529999934,
                53.56630035000006
              ],
              [
                -6.075787765999962,
                53.56622295500006
              ],
              [
                -6.075127556999973,
                53.566140991000054
              ],
              [
                -6.074468992999925,
                53.56605446900005
              ],
              [
                -6.073812162999957,
                53.565963400000044
              ],
              [
                -6.073157153999944,
                53.56586779700007
              ],
              [
                -6.072504055999957,
                53.56576767400003
              ],
              [
                -6.071852956999976,
                53.56566304200004
              ],
              [
                -6.071203943999933,
                53.565553917000045
              ],
              [
                -6.070557103999931,
                53.56544031300007
              ],
              [
                -6.069912526999929,
                53.56532224600005
              ],
              [
                -6.069270296999946,
                53.565199731000064
              ],
              [
                -6.068630501999962,
                53.56507278500004
              ],
              [
                -6.0679932279999775,
                53.56494142500003
              ],
              [
                -6.067358560999935,
                53.564805670000055
              ],
              [
                -6.066726586999948,
                53.564665536000064
              ],
              [
                -6.066097390999971,
                53.56452104300007
              ],
              [
                -6.065471056999968,
                53.564372211000034
              ],
              [
                -6.064847670999939,
                53.56421905900004
              ],
              [
                -6.064227315999972,
                53.56406160900008
              ],
              [
                -6.063610075999975,
                53.563899881000054
              ],
              [
                -6.062996034999969,
                53.563733898000066
              ],
              [
                -6.062385273999951,
                53.56356368100006
              ],
              [
                -6.06177787699994,
                53.56338925400007
              ],
              [
                -6.061173924999935,
                53.56321064100007
              ],
              [
                -6.060573498999929,
                53.56302786500004
              ],
              [
                -6.059976681999956,
                53.562840950000066
              ],
              [
                -6.059383551999929,
                53.56264992300004
              ],
              [
                -6.058794189999958,
                53.56245480900003
              ],
              [
                -6.058208676999925,
                53.56225563500004
              ],
              [
                -6.057627088999936,
                53.56205242600004
              ],
              [
                -6.057049505999942,
                53.56184521100005
              ],
              [
                -6.0564760059999685,
                53.56163401800006
              ],
              [
                -6.055906665999942,
                53.56141887500007
              ],
              [
                -6.055341562999956,
                53.56119981100005
              ],
              [
                -6.054780772999948,
                53.560976855000035
              ],
              [
                -6.054224370999975,
                53.56075003800004
              ],
              [
                -6.053672432999974,
                53.56051939100007
              ],
              [
                -6.0531250319999685,
                53.560284944000045
              ],
              [
                -6.052582242999961,
                53.56004672800003
              ],
              [
                -6.052044138999975,
                53.55980477700007
              ],
              [
                -6.051510791999931,
                53.55955912300004
              ],
              [
                -6.050982273999978,
                53.55930979900006
              ],
              [
                -6.0504586559999325,
                53.55905683800006
              ],
              [
                -6.049940008999954,
                53.55880027500007
              ],
              [
                -6.049426402999927,
                53.55854014400006
              ],
              [
                -6.048917905999929,
                53.558276481000064
              ],
              [
                -6.048414587999957,
                53.55800932000005
              ],
              [
                -6.04791651599993,
                53.557738699000026
              ],
              [
                -6.047423756999933,
                53.55746465300007
              ],
              [
                -6.046936376999952,
                53.55718721900007
              ],
              [
                -6.04645444199997,
                53.55690643500003
              ],
              [
                -6.045978017999971,
                53.55662233900006
              ],
              [
                -6.045507166999926,
                53.556334969000034
              ],
              [
                -6.045041953999942,
                53.55604436300007
              ],
              [
                -6.044582440999932,
                53.55575056100008
              ],
              [
                -6.0441286899999795,
                53.555453603000046
              ],
              [
                -6.043680761999951,
                53.55515352900005
              ],
              [
                -6.0432387169999515,
                53.554850378000026
              ],
              [
                -6.042802614999971,
                53.55454419300003
              ],
              [
                -6.042372513999965,
                53.55423501300004
              ],
              [
                -6.041948471999945,
                53.55392288200005
              ],
              [
                -6.041530546999979,
                53.55360784000004
              ],
              [
                -6.041118793999942,
                53.55328993100005
              ],
              [
                -6.04071326899998,
                53.55296919700004
              ],
              [
                -6.040314025999976,
                53.55264568200005
              ],
              [
                -6.039921119999974,
                53.55231942800003
              ],
              [
                -6.0395346019999465,
                53.551990481000075
              ],
              [
                -6.039154524999958,
                53.55165888400006
              ],
              [
                -6.038780939999981,
                53.551324683000075
              ],
              [
                -6.038413896999941,
                53.55098792200005
              ],
              [
                -6.038053444999946,
                53.55064864600007
              ],
              [
                -6.0376996329999315,
                53.550306901000056
              ],
              [
                -6.037352508999959,
                53.549962734000076
              ],
              [
                -6.03701211799995,
                53.54961619100004
              ],
              [
                -6.036678506999976,
                53.549267318000034
              ],
              [
                -6.03635172099996,
                53.54891616300006
              ],
              [
                -6.036031802999958,
                53.54856277300007
              ],
              [
                -6.035718795999969,
                53.54820719500003
              ],
              [
                -6.035412741999949,
                53.54784947700006
              ],
              [
                -6.035113682999963,
                53.54748966800008
              ],
              [
                -6.034821657999942,
                53.54712781600006
              ],
              [
                -6.0345367069999725,
                53.54676397000003
              ],
              [
                -6.034258867999938,
                53.54639817800006
              ],
              [
                -6.033988177999959,
                53.54603049100007
              ],
              [
                -6.033724672999938,
                53.54566095800004
              ],
              [
                -6.03346838899995,
                53.545289628000035
              ],
              [
                -6.0332193599999755,
                53.54491655100003
              ],
              [
                -6.032977618999951,
                53.54454177800005
              ],
              [
                -6.03274319999997,
                53.54416536000008
              ],
              [
                -6.032516131999955,
                53.543787346000045
              ],
              [
                -6.032296446999965,
                53.54340778800008
              ],
              [
                -6.032189381999956,
                53.543217447000075
              ],
              [
                -6.032084173999976,
                53.54302673800004
              ],
              [
                -6.031980825999938,
                53.542835669000056
              ],
              [
                -6.0318793409999785,
                53.542644246000066
              ],
              [
                -6.031779722999943,
                53.54245247500006
              ],
              [
                -6.031681975999959,
                53.54226036300008
              ],
              [
                -6.031586101999949,
                53.542067917000054
              ],
              [
                -6.031492104999927,
                53.54187514200004
              ],
              [
                -6.031399987999976,
                53.54168204600006
              ],
              [
                -6.0313097529999595,
                53.541488635000064
              ],
              [
                -6.03122140499994,
                53.54129491500004
              ],
              [
                -6.031134945999952,
                53.54110089300008
              ],
              [
                -6.031050377999975,
                53.540906576000054
              ],
              [
                -6.030967704999966,
                53.540711970000075
              ],
              [
                -6.0308869299999515,
                53.540517081000075
              ],
              [
                -6.030808053999976,
                53.54032191600004
              ],
              [
                -6.030731081999932,
                53.54012648200006
              ],
              [
                -6.030656013999931,
                53.53993078500008
              ],
              [
                -6.030582853999931,
                53.53973483200008
              ],
              [
                -6.030511604999958,
                53.53953862900005
              ],
              [
                -6.030442267999945,
                53.53934218300003
              ],
              [
                -6.030374845999972,
                53.53914550200005
              ],
              [
                -6.030309340999963,
                53.538948590000075
              ],
              [
                -6.0302457559999425,
                53.53875145500007
              ],
              [
                -6.030184091999956,
                53.53855410400007
              ],
              [
                -6.030124350999927,
                53.53835654300008
              ],
              [
                -6.030066535999936,
                53.53815877900007
              ],
              [
                -6.030010647999973,
                53.537960818000045
              ],
              [
                -6.029956689999949,
                53.53776266800003
              ],
              [
                -6.0299046619999785,
                53.53756433400008
              ],
              [
                -6.029854567999962,
                53.53736582400006
              ],
              [
                -6.029806406999967,
                53.53716714400008
              ],
              [
                -6.029760182999951,
                53.53696830100006
              ],
              [
                -6.029715895999971,
                53.53676930200004
              ],
              [
                -6.029673548999938,
                53.53657015300007
              ],
              [
                -6.029633140999977,
                53.53637086100008
              ],
              [
                -6.029594675999931,
                53.53617143200006
              ],
              [
                -6.029558152999925,
                53.53597187400004
              ],
              [
                -6.029523574999928,
                53.53577219300007
              ],
              [
                -6.0294909419999385,
                53.53557239600008
              ],
              [
                -6.029460254999947,
                53.53537248900005
              ],
              [
                -6.029431515999931,
                53.53517248000003
              ],
              [
                -6.029404724999949,
                53.53497237500005
              ],
              [
                -6.029379882999933,
                53.53477218100005
              ],
              [
                -6.029356990999929,
                53.534571904000074
              ],
              [
                -6.029336050999973,
                53.53437155100005
              ],
              [
                -6.029317060999972,
                53.53417112900007
              ],
              [
                -6.0293000239999515,
                53.53397064500007
              ],
              [
                -6.029284938999979,
                53.53377010600008
              ],
              [
                -6.02927180699993,
                53.533569518000036
              ],
              [
                -6.029260628999964,
                53.53336888700005
              ],
              [
                -6.029251404999968,
                53.53316822200003
              ],
              [
                -6.029244134999942,
                53.53296752800003
              ],
              [
                -6.029238818999943,
                53.532766812000034
              ],
              [
                -6.02923545799996,
                53.53256608100003
              ],
              [
                -6.029234050999946,
                53.53236534200005
              ],
              [
                -6.029234598999949,
                53.53216460200008
              ],
              [
                -6.029237100999978,
                53.53196386700006
              ],
              [
                -6.029241557999967,
                53.531763143000035
              ],
              [
                -6.029247969999972,
                53.53156243900003
              ],
              [
                -6.029256334999957,
                53.53136176000004
              ],
              [
                -6.029266653999969,
                53.53116111300005
              ],
              [
                -6.029278925999961,
                53.53096050600004
              ],
              [
                -6.0292931509999335,
                53.53075994400007
              ],
              [
                -6.029309328999943,
                53.53055943500004
              ],
              [
                -6.029327457999955,
                53.53035898500008
              ],
              [
                -6.029347538999957,
                53.53015860100004
              ],
              [
                -6.029369569999972,
                53.529958289000035
              ],
              [
                -6.0293935509999415,
                53.52975805800003
              ],
              [
                -6.029419480999934,
                53.52955791200003
              ],
              [
                -6.02944735899996,
                53.52935786000006
              ],
              [
                -6.029477182999926,
                53.52915790700007
              ],
              [
                -6.029508953999937,
                53.528958061000026
              ],
              [
                -6.029542669999955,
                53.52875832800004
              ],
              [
                -6.029578328999946,
                53.52855871400004
              ],
              [
                -6.029615930999967,
                53.52835922700007
              ],
              [
                -6.029655473999981,
                53.52815987400004
              ],
              [
                -6.029696956999942,
                53.527960661000066
              ],
              [
                -6.029740377999929,
                53.527761594000026
              ],
              [
                -6.029785735999951,
                53.52756268100006
              ],
              [
                -6.029833029999963,
                53.52736392800006
              ],
              [
                -6.02988225799993,
                53.52716534100006
              ],
              [
                -6.029933416999938,
                53.526966928000036
              ],
              [
                -6.029986506999933,
                53.52676869600003
              ],
              [
                -6.030041524999945,
                53.52657065000005
              ],
              [
                -6.030098469999928,
                53.52637279700008
              ],
              [
                -6.03015733999996,
                53.52617514500008
              ],
              [
                -6.0302181329999485,
                53.525977699000066
              ],
              [
                -6.0302808459999255,
                53.52578046700006
              ],
              [
                -6.030345476999969,
                53.52558345500006
              ],
              [
                -6.0304120249999755,
                53.525386670000046
              ],
              [
                -6.030480486999977,
                53.52519011800007
              ],
              [
                -6.030550860999938,
                53.524993806000055
              ],
              [
                -6.030623142999957,
                53.524797740000054
              ],
              [
                -6.030697332999978,
                53.52460192800004
              ],
              [
                -6.030773426999929,
                53.52440637500007
              ],
              [
                -6.030851422999945,
                53.52421108800007
              ],
              [
                -6.0309313179999435,
                53.52401607500008
              ],
              [
                -6.031013108999957,
                53.52382134000004
              ],
              [
                -6.03109679399995,
                53.52362689200004
              ],
              [
                -6.031182369999954,
                53.523432736000075
              ],
              [
                -6.0312698329999535,
                53.523238879000075
              ],
              [
                -6.03135918199996,
                53.52304532800008
              ],
              [
                -6.03145041199997,
                53.52285208900008
              ],
              [
                -6.031543520999946,
                53.522659168000075
              ],
              [
                -6.031638504999933,
                53.52246657300003
              ],
              [
                -6.031735361999949,
                53.52227430900007
              ],
              [
                -6.0318340879999255,
                53.522082382000065
              ],
              [
                -6.031934679999949,
                53.52189080100004
              ],
              [
                -6.03203713399995,
                53.52169957000007
              ],
              [
                -6.032141446999958,
                53.52150869600007
              ],
              [
                -6.03224761599995,
                53.52131818700008
              ],
              [
                -6.032465503999958,
                53.52093828400007
              ],
              [
                -6.032690769999931,
                53.520559913000056
              ],
              [
                -6.032923382999968,
                53.52018312400003
              ],
              [
                -6.033163310999953,
                53.519807969000055
              ],
              [
                -6.0334105229999295,
                53.51943449700008
              ],
              [
                -6.033664983999927,
                53.519062759000064
              ],
              [
                -6.033926659999963,
                53.51869280500006
              ],
              [
                -6.034195514999965,
                53.51832468500004
              ],
              [
                -6.03447151499995,
                53.51795844700007
              ],
              [
                -6.034754619999944,
                53.517594142000064
              ],
              [
                -6.03504479399993,
                53.517231819000074
              ],
              [
                -6.035341995999943,
                53.516871526000045
              ],
              [
                -6.035646185999951,
                53.51651331100004
              ],
              [
                -6.03595732399998,
                53.51615722200006
              ],
              [
                -6.036275367999963,
                53.515803309000034
              ],
              [
                -6.036600273999966,
                53.51545161700005
              ],
              [
                -6.036931998999933,
                53.515102195000054
              ],
              [
                -6.037270496999952,
                53.51475509000005
              ],
              [
                -6.037615723999977,
                53.51441034800007
              ],
              [
                -6.037967632999937,
                53.51406801500008
              ],
              [
                -6.038326175999941,
                53.513728137000044
              ],
              [
                -6.03869130399994,
                53.51339076100004
              ],
              [
                -6.039062968999929,
                53.51305593100005
              ],
              [
                -6.039441120999925,
                53.512723693000055
              ],
              [
                -6.039825707999967,
                53.51239409100003
              ],
              [
                -6.040216678999968,
                53.512067169000034
              ],
              [
                -6.040613980999979,
                53.511742972000036
              ],
              [
                -6.041017560999933,
                53.51142154300004
              ],
              [
                -6.041427362999968,
                53.511102925000046
              ],
              [
                -6.041843332999974,
                53.51078716100005
              ],
              [
                -6.042265414999974,
                53.51047429400006
              ],
              [
                -6.042693551999946,
                53.51016436500004
              ],
              [
                -6.043127685999934,
                53.509857417000035
              ],
              [
                -6.043567757999938,
                53.50955349000003
              ],
              [
                -6.044013710999934,
                53.509252625000045
              ],
              [
                -6.044465481999964,
                53.50895486300004
              ],
              [
                -6.044923012999959,
                53.508660244000055
              ],
              [
                -6.045386239999971,
                53.50836880700007
              ],
              [
                -6.045855101999962,
                53.508080592000056
              ],
              [
                -6.046329534999927,
                53.50779563700007
              ],
              [
                -6.046809475999964,
                53.507513981000045
              ],
              [
                -6.047294859999965,
                53.50723566100004
              ],
              [
                -6.047785621999935,
                53.50696071400006
              ],
              [
                -6.048281694999957,
                53.506689179000034
              ],
              [
                -6.04878301399998,
                53.50642109100005
              ],
              [
                -6.049289509999937,
                53.506156486000066
              ],
              [
                -6.04980111499998,
                53.50589540000004
              ],
              [
                -6.050317759999928,
                53.505637867000075
              ],
              [
                -6.050839376999932,
                53.50538392400006
              ],
              [
                -6.051365893999957,
                53.50513360300005
              ],
              [
                -6.051897240999949,
                53.50488693800003
              ],
              [
                -6.052433346999976,
                53.504643962000046
              ],
              [
                -6.052974138999957,
                53.50440470900003
              ],
              [
                -6.053519544999972,
                53.50416921000004
              ],
              [
                -6.05406949099995,
                53.50393749600005
              ],
              [
                -6.054623903999925,
                53.503709600000036
              ],
              [
                -6.055182707999961,
                53.50348555100004
              ],
              [
                -6.055745828999932,
                53.50326538000007
              ],
              [
                -6.056313190999958,
                53.50304911600006
              ],
              [
                -6.056884717999935,
                53.50283678900007
              ],
              [
                -6.057460332999938,
                53.50262842600006
              ],
              [
                -6.058039957999938,
                53.50242405600005
              ],
              [
                -6.058623514999965,
                53.50222370600005
              ],
              [
                -6.059210926999981,
                53.502027404000046
              ],
              [
                -6.059802113999979,
                53.50183517500005
              ],
              [
                -6.060396995999952,
                53.50164704600007
              ],
              [
                -6.060995494999929,
                53.50146304100008
              ],
              [
                -6.061597527999936,
                53.50128318600008
              ],
              [
                -6.062203015999955,
                53.50110750400006
              ],
              [
                -6.062811876999945,
                53.50093601900005
              ],
              [
                -6.063424028999975,
                53.50076875500008
              ],
              [
                -6.064039389999948,
                53.50060573300004
              ],
              [
                -6.0646578779999345,
                53.500446975000045
              ],
              [
                -6.06527940899997,
                53.50029250400007
              ],
              [
                -6.065903898999977,
                53.500142339000035
              ],
              [
                -6.0665312649999805,
                53.499996501000055
              ],
              [
                -6.06716142199997,
                53.49985500900004
              ],
              [
                -6.06779428699997,
                53.49971788300007
              ],
              [
                -6.068429772999934,
                53.49958514000008
              ],
              [
                -6.069067794999967,
                53.49945679900003
              ],
              [
                -6.069708267999943,
                53.49933287700003
              ],
              [
                -6.0703511059999755,
                53.49921339100007
              ],
              [
                -6.0709962219999625,
                53.49909835600005
              ],
              [
                -6.07164352999996,
                53.49898778800008
              ],
              [
                -6.0722929429999795,
                53.49888170200006
              ],
              [
                -6.0729443729999275,
                53.49878011200008
              ],
              [
                -6.073597732999929,
                53.49868303200003
              ],
              [
                -6.074252934999947,
                53.49859047400008
              ],
              [
                -6.0749098909999475,
                53.49850245200008
              ]
            ]
          ]
        ],
        "layer": {
          "upper": 2000.0,
          "upperReference": "AMSL",
          "lower": 0.0,
          "lowerReference": "AGL",
          "uom": "ft"
        }
      }
    }
  ]
}
