{
  "type": "FeatureCollection",
  "features": [
    {
      "type": "Feature",
      "geometry": {
        "type": "Polygon",
        "coordinates": [
          [
            [
              -16.247603296999955,
              28.464587649000066
            ],
            [
              -16.247612195999977,
              28.464587305000066
            ],
            [
              -16.247621094999943,
              28.464587649000066
            ],
            [
              -16.247629926999934,
              28.464588676000062
            ],
            [
              -16.247638622999943,
              28.46459038000006
            ],
            [
              -16.247647118999964,
              28.46459274700004
            ],
            [
              -16.24765602499997,
              28.46459604100005
            ],
            [
              -16.247987277999982,
              28.464735160000032
            ],
            [
              -16.247994501999926,
              28.464738513000043
            ],
            [
              -16.24800201499994,
              28.464742743000045
            ],
            [
              -16.248009081999953,
              28.464747535000072
            ],
            [
              -16.248015648999967,
              28.46475285300005
            ],
            [
              -16.248021666999932,
              28.464758656000072
            ],
            [
              -16.248027089999937,
              28.464764901000024
            ],
            [
              -16.24803187599997,
              28.464771540000072
            ],
            [
              -16.24803598899996,
              28.464778522000074
            ],
            [
              -16.248039397999946,
              28.46478579500007
            ],
            [
              -16.24804207699998,
              28.464793302000032
            ],
            [
              -16.24804400399995,
              28.464800987000046
            ],
            [
              -16.24804516699993,
              28.464808791000053
            ],
            [
              -16.248045555999965,
              28.46481665500005
            ],
            [
              -16.24804516699993,
              28.464824520000036
            ],
            [
              -16.24804400499994,
              28.464832324000042
            ],
            [
              -16.24804207699998,
              28.464840009000056
            ],
            [
              -16.248039397999946,
              28.464847516000077
            ],
            [
              -16.248035168999934,
              28.46485630600006
            ],
            [
              -16.24784019599997,
              28.46520848600005
            ],
            [
              -16.24783933799995,
              28.465209982000033
            ],
            [
              -16.247836074999952,
              28.46521546400004
            ],
            [
              -16.247831288999976,
              28.46522210300003
            ],
            [
              -16.24782586599997,
              28.46522834800004
            ],
            [
              -16.24781984799995,
              28.46523415100006
            ],
            [
              -16.247813280999935,
              28.46523946900004
            ],
            [
              -16.24780621399998,
              28.465244261000066
            ],
            [
              -16.247798700999965,
              28.465248491000068
            ],
            [
              -16.24779079999996,
              28.465252125000063
            ],
            [
              -16.24778256999997,
              28.465255138000032
            ],
            [
              -16.24777407499994,
              28.465257505000068
            ],
            [
              -16.24776537799994,
              28.465259208000077
            ],
            [
              -16.247756546999938,
              28.465260236000063
            ],
            [
              -16.247747647999972,
              28.465260579000073
            ],
            [
              -16.24773874799996,
              28.465260236000063
            ],
            [
              -16.24772991699996,
              28.465259208000077
            ],
            [
              -16.24772121999996,
              28.465257505000068
            ],
            [
              -16.24771272499993,
              28.465255138000032
            ],
            [
              -16.247704510999938,
              28.465252084000042
            ],
            [
              -16.247702637999964,
              28.465251306000027
            ],
            [
              -16.24769655299997,
              28.46524858500004
            ],
            [
              -16.24737860299996,
              28.465110657000025
            ],
            [
              -16.247376750999933,
              28.46510982600006
            ],
            [
              -16.24737070599997,
              28.46510701400007
            ],
            [
              -16.247363192999956,
              28.465102784000067
            ],
            [
              -16.247356125999943,
              28.46509799200004
            ],
            [
              -16.24734955899993,
              28.46509267400006
            ],
            [
              -16.247343540999964,
              28.46508687100004
            ],
            [
              -16.24733811799996,
              28.46508062600003
            ],
            [
              -16.247333331999982,
              28.46507398700004
            ],
            [
              -16.247329218999937,
              28.465067005000037
            ],
            [
              -16.24732580999995,
              28.465059732000043
            ],
            [
              -16.247323130999973,
              28.46505222500008
            ],
            [
              -16.247321202999956,
              28.465044540000065
            ],
            [
              -16.247320040999966,
              28.46503673600006
            ],
            [
              -16.24731965199993,
              28.465028871000072
            ],
            [
              -16.247320040999966,
              28.465021007000075
            ],
            [
              -16.247321202999956,
              28.46501320300007
            ],
            [
              -16.247323130999973,
              28.465005518000055
            ],
            [
              -16.24732580999995,
              28.464998011000034
            ],
            [
              -16.247329239999942,
              28.464990748000048
            ],
            [
              -16.24732968799998,
              28.46498990200007
            ],
            [
              -16.24733317099998,
              28.46498366900005
            ],
            [
              -16.247520107999947,
              28.464638557000058
            ],
            [
              -16.24752376899994,
              28.464632421000033
            ],
            [
              -16.247528554999974,
              28.46462578200004
            ],
            [
              -16.24753397799998,
              28.464619537000033
            ],
            [
              -16.247539995999944,
              28.46461373300008
            ],
            [
              -16.247546562999958,
              28.464608415000043
            ],
            [
              -16.24755362999997,
              28.464603623000073
            ],
            [
              -16.247561142999928,
              28.46459939400006
            ],
            [
              -16.24756904399993,
              28.464595759000076
            ],
            [
              -16.247577272999933,
              28.46459274700004
            ],
            [
              -16.247585768999954,
              28.46459038000006
            ],
            [
              -16.247594464999963,
              28.464588676000062
            ],
            [
              -16.247603296999955,
              28.464587649000066
            ]
          ]
        ]
      },
      "properties": {
        "identifier": "INF0325",
        "country": "ESP",
        "regulationExemption": "No",
        "type": "REQ_AUTHORIZATION",
        "name": "Infraestructura Santa Cruz de Tenerife",
        "reasons": "SENSITIVE",
        "message": "Se encuentra en una Zona Geográfica de UAS general por razón de la protección de las instalaciones e infraestructuras.<p><b>Por debajo de 92.1m, respecto al suelo, se requiere permiso previo y expreso del titular </b>o gestor responsable de la instalación o infraestructura y, en su caso, en las condiciones que éste determine.</p><p>CONTACTO:   Email: seguridad@gsccanarias.com</p>",
        "variant": "COMMON",
        "otherReasonInfo": "",
        "restrictionConditions": "",
        "region": "",
        "extendedProperties": "",
        "issued": "",
        "validFrom": "",
        "validTo": "",
        "provider": "",
        "description": "",
        "otherGeoid": "",
        "technicalLimitation": "",
        "originator": "",
        "purpose": "AUTHORIZATION",
        "intervalBefore": "",
        "service": "",
        "contactName": "",
        "siteURL": "",
        "email": "seguridad@gsccanarias.com",
        "phone": "",
        "lower": 0,
        "lowerReference": "AGL",
        "upper": 92.1,
        "upperReference": "AGL",
        "uom": "M",
        "creationDateTime": "2026-01-29T14:55:04",
        "updateDateTime": "2026-01-29T14:55:04",
        "startDateTime": "",
        "endDateTime": "",
        "day": "ANY",
        "startTime": "",
        "startEvent": "",
        "endTime": "",
        "endEvent": "",
        "name_authority": ""
      }
    },
    {
      "type": "Feature",
      "geometry": {
        "type": "Polygon",
        "coordinates": [
          [
            [
              -0.5725983249999445,
              38.793492978000074
            ],
            [
              -0.5726053659999479,
              38.79341459700004
            ],
            [
              -0.5726211089999538,
              38.79333699600005
            ],
            [
              -0.5726454339999805,
              38.793260763000035
            ],
            [
              -0.5726781569999275,
              38.79318647900004
            ],
            [
              -0.5727190269999483,
              38.793114711000044
            ],
            [
              -0.5727677349999567,
              38.79304600300003
            ],
            [
              -0.5728239089999647,
              38.79298087800004
            ],
            [
              -0.5728871219999405,
              38.79291983300004
            ],
            [
              -0.5729568919999792,
              38.792863332000024
            ],
            [
              -0.5730326889999446,
              38.79281180500004
            ],
            [
              -0.5731139359999702,
              38.79276564400004
            ],
            [
              -0.5732000139999514,
              38.79272520000006
            ],
            [
              -0.5732902689999264,
              38.79269078100003
            ],
            [
              -0.5733840139999415,
              38.79266265000007
            ],
            [
              -0.5734805339999411,
              38.79264101900003
            ],
            [
              -0.5735790959999463,
              38.79262605500003
            ],
            [
              -0.5736789499999304,
              38.79261787000007
            ],
            [
              -0.5737793349999265,
              38.792616527000064
            ],
            [
              -0.5738794869999424,
              38.79262203600007
            ],
            [
              -0.5739786449999542,
              38.792634355000075
            ],
            [
              -0.5740760539999314,
              38.792653391000044
            ],
            [
              -0.5741709719999335,
              38.79267899900003
            ],
            [
              -0.5742626779999682,
              38.79271098300006
            ],
            [
              -0.574350471999935,
              38.79274910100003
            ],
            [
              -0.5744336879999423,
              38.792793062000044
            ],
            [
              -0.574511690999941,
              38.792842531000076
            ],
            [
              -0.5745838879999496,
              38.792897133000054
            ],
            [
              -0.574649729999976,
              38.792956452000055
            ],
            [
              -0.5747087149999288,
              38.79302003500004
            ],
            [
              -0.5747603949999416,
              38.79308740000005
            ],
            [
              -0.5748043759999746,
              38.793158034000044
            ],
            [
              -0.5748403239999789,
              38.793231399000035
            ],
            [
              -0.5748679649999531,
              38.79330693600008
            ],
            [
              -0.5748870879999686,
              38.79338407200004
            ],
            [
              -0.5748975479999672,
              38.79346221800006
            ],
            [
              -0.5748992649999423,
              38.79354078000006
            ],
            [
              -0.5748922269999639,
              38.79361916100004
            ],
            [
              -0.5748764859999369,
              38.79369676300007
            ],
            [
              -0.5748521629999459,
              38.79377299600003
            ],
            [
              -0.5748194419999777,
              38.79384728000008
            ],
            [
              -0.5747785729999464,
              38.793919050000056
            ],
            [
              -0.5747298669999736,
              38.79398775900006
            ],
            [
              -0.574673693999955,
              38.79405288400005
            ],
            [
              -0.5746104819999687,
              38.79411393000004
            ],
            [
              -0.5745407109999405,
              38.794170432000044
            ],
            [
              -0.5744649139999751,
              38.79422196000007
            ],
            [
              -0.5743836659999602,
              38.79426812200006
            ],
            [
              -0.5742975859999433,
              38.79430856700003
            ],
            [
              -0.5742073299999788,
              38.79434298600006
            ],
            [
              -0.574113582999928,
              38.79437111800007
            ],
            [
              -0.5740170609999495,
              38.79439274900005
            ],
            [
              -0.5739184959999761,
              38.794407714000045
            ],
            [
              -0.5738186399999563,
              38.79441589900006
            ],
            [
              -0.5737182529999245,
              38.794417242000065
            ],
            [
              -0.5736180979999403,
              38.79441173300006
            ],
            [
              -0.5735189369999603,
              38.794399413000065
            ],
            [
              -0.5734215259999473,
              38.79438037700004
            ],
            [
              -0.5733266059999664,
              38.79435476900005
            ],
            [
              -0.5732348989999423,
              38.79432278300004
            ],
            [
              -0.5731471029999398,
              38.79428466500008
            ],
            [
              -0.5730638869999325,
              38.79424070300007
            ],
            [
              -0.5729858829999444,
              38.79419123300005
            ],
            [
              -0.5729136859999358,
              38.794136630000025
            ],
            [
              -0.5728478449999557,
              38.794077310000034
            ],
            [
              -0.572788859999946,
              38.79401372600006
            ],
            [
              -0.5727371809999795,
              38.793946360000064
            ],
            [
              -0.5726932019999253,
              38.79387572500008
            ],
            [
              -0.5726572559999568,
              38.79380236000003
            ],
            [
              -0.5726296179999508,
              38.79372682200005
            ],
            [
              -0.572610496999971,
              38.79364968600004
            ],
            [
              -0.5726000399999407,
              38.79357154000007
            ],
            [
              -0.5725983249999445,
              38.793492978000074
            ]
          ]
        ]
      },
      "properties": {
        "identifier": "INF0224",
        "country": "ESP",
        "regulationExemption": "SI",
        "type": "CONDITIONAL",
        "name": "",
        "reasons": "OTHER",
        "message": "Se encuentra en una <b>Zona Geográfica de UAS </b>de protección de las infraestructuras ferroviarias, gestionada por <b>ADIF/ ADIF AV</b>.<p><font color=\"#dc143c\"><b>Categoría Abierta:</b></font> Toda la zona es una Zona Geográfica Particular, que afecta a los vuelos en categoría abierta. <b>Compruebe, para vuelos por debajo de 120m</b> respecto al suelo, si su operación está en zona declarativa o requiere autorización previa de <b>ADIF/ ADIF AV</b> y conozca las condiciones de vuelo en la web <font color=\"#009fda\"><a href='https://www.adif.es/solicitud-de-actuaciones-en-zona-de-afeccion-del-ferrocarril'  target='_blank'>ADIF</a></font>. No se requiere aprobación por <font color=\"#009fda\"><a href='https://www.seguridadaerea.gob.es/es/ambitos/drones/operaciones-con-uas-drones/operaciones-con-uas-drones---categoria-abierta-subcategorias-a1-a2-y-a3' target='_blank'>AESA</a></font>.</p><p>En las zonas donde el ferrocarril discurra en túnel, sólo se debe tener en cuenta aquellas instalaciones asociadas al túnel que pudiesen estar en la vertical de la traza representada, a la hora de realizar las operaciones.</p><p><font color=\"#dc143c\"><b>Categoría Específica:</b></font> Zona Geográfica General, de menores dimensiones que la particular. La zona horizontalmente se extenderá 25m medidos desde los extremos exteriores de sus laterales en infraestructuras lineales y 10m en las no lineales. Verticalmente, a una <b>altura mínima de 50m sobre el punto más elevado</b> de la infraestructura o instalación afectada. Se requiere permiso del titular <font color=\"#009fda\"><a href='https://www.adif.es/solicitud-de-actuaciones-en-zona-de-afeccion-del-ferrocarril'  target='_blank'>ADIF</a></font>.</p>",
        "variant": "CUSTOMIZED",
        "otherReasonInfo": "Protección Infraestructura Ferroviaria",
        "restrictionConditions": "",
        "region": "",
        "extendedProperties": "",
        "issued": "",
        "validFrom": "",
        "validTo": "",
        "provider": "ADIF",
        "description": "",
        "otherGeoid": "",
        "technicalLimitation": "",
        "originator": "",
        "purpose": "NOTIFICATION",
        "intervalBefore": "P20D",
        "service": "",
        "contactName": "",
        "siteURL": "https://www.adif.es/solicitud-de-actuaciones-en-zona-de-afeccion-del-ferrocarril",
        "email": "autorizacioneszonadeafeccion@adif.es",
        "phone": "",
        "lower": 0,
        "lowerReference": "AGL",
        "upper": 120.0,
        "upperReference": "AGL",
        "uom": "M",
        "creationDateTime": "2026-07-01T08:55:48",
        "updateDateTime": "2026-07-01T17:55:44",
        "startDateTime": "",
        "endDateTime": "",
        "day": "ANY",
        "startTime": "",
        "startEvent": "",
        "endTime": "",
        "endEvent": "",
        "name_authority": "ADIF"
      }
    },
    {
      "type": "Feature",
      "geometry": {
        "type": "Polygon",
        "coordinates": [
          [
            [
              -8.496182244999943,
              43.35211314000003
            ],
            [
              -8.494165220999946,
              43.35208193400007
            ],
            [
              -8.494153517999962,
              43.352081345000045
            ],
            [
              -8.494139391999965,
              43.35207952800005
            ],
            [
              -8.494125650999933,
              43.352076526000076
            ],
            [
              -8.494112479999956,
              43.35207238000004
            ],
            [
              -8.494100057999958,
              43.35206714600008
            ],
            [
              -8.494088552999926,
              43.35206089600007
            ],
            [
              -8.494078119999926,
              43.35205371300003
            ],
            [
              -8.494068899999945,
              43.35204569500007
            ],
            [
              -8.494061017999968,
              43.35203694900008
            ],
            [
              -8.494054580999943,
              43.35202759600003
            ],
            [
              -8.494049674999928,
              43.35201776000008
            ],
            [
              -8.494046366999953,
              43.35200757500007
            ],
            [
              -8.49404470199994,
              43.35199717800003
            ],
            [
              -8.494044504999977,
              43.35199319900005
            ],
            [
              -8.49400159399994,
              43.34974633300004
            ],
            [
              -8.49400179099996,
              43.349739845000045
            ],
            [
              -8.494003455999973,
              43.34972944800006
            ],
            [
              -8.494006763999948,
              43.349719263000054
            ],
            [
              -8.494011669999963,
              43.34970942800004
            ],
            [
              -8.494018106999931,
              43.349700074000054
            ],
            [
              -8.494025987999976,
              43.34969132900005
            ],
            [
              -8.494035207999957,
              43.349683310000046
            ],
            [
              -8.494045640999957,
              43.349676127000066
            ],
            [
              -8.494057145999932,
              43.34966987700005
            ],
            [
              -8.49406956699994,
              43.34966464300004
            ],
            [
              -8.494082736999928,
              43.34966049700006
            ],
            [
              -8.49409647799996,
              43.34965749500003
            ],
            [
              -8.494110602999967,
              43.34965567800003
            ],
            [
              -8.494124921999969,
              43.34965506900005
            ],
            [
              -8.494127482999943,
              43.349655089000066
            ],
            [
              -8.49618741699993,
              43.34968629600007
            ],
            [
              -8.496199176999937,
              43.34968688500004
            ],
            [
              -8.496213301999944,
              43.34968870200004
            ],
            [
              -8.496227042999976,
              43.349691704000065
            ],
            [
              -8.496240212999965,
              43.349695850000046
            ],
            [
              -8.496252634999962,
              43.34970108400006
            ],
            [
              -8.496264138999948,
              43.34970733400007
            ],
            [
              -8.496274571999948,
              43.34971451700005
            ],
            [
              -8.496283791999929,
              43.34972253600006
            ],
            [
              -8.496291673999963,
              43.34973128100006
            ],
            [
              -8.49629811099993,
              43.349740635000046
            ],
            [
              -8.496303015999956,
              43.34975047000006
            ],
            [
              -8.496306323999931,
              43.34976065500007
            ],
            [
              -8.496307988999945,
              43.34977105200005
            ],
            [
              -8.496308197999952,
              43.349776285000075
            ],
            [
              -8.496308202999955,
              43.352023151000026
            ],
            [
              -8.496307993999949,
              43.35202838400005
            ],
            [
              -8.496306328999935,
              43.35203878000004
            ],
            [
              -8.49630302099996,
              43.35204896500005
            ],
            [
              -8.496298114999945,
              43.352058801000055
            ],
            [
              -8.496291677999977,
              43.35206815500004
            ],
            [
              -8.496283795999943,
              43.35207690000004
            ],
            [
              -8.496274575999962,
              43.35208491900005
            ],
            [
              -8.496264142999962,
              43.35209210200003
            ],
            [
              -8.496252636999941,
              43.35209835200004
            ],
            [
              -8.496240214999943,
              43.352103586000055
            ],
            [
              -8.496227044999955,
              43.352107732000036
            ],
            [
              -8.49621330399998,
              43.352110734000064
            ],
            [
              -8.496199177999927,
              43.35211255100006
            ],
            [
              -8.496184857999936,
              43.352113160000044
            ],
            [
              -8.496182244999943,
              43.35211314000003
            ]
          ],
          [
            [
              -8.52262774299993,
              43.35307282500003
            ],
            [
              -8.521855265999932,
              43.353322468000044
            ],
            [
              -8.521847505999972,
              43.35332474900008
            ],
            [
              -8.52183376499994,
              43.35332775100005
            ],
            [
              -8.521819638999943,
              43.35332956800005
            ],
            [
              -8.521805318999952,
              43.35333017700003
            ],
            [
              -8.521790998999961,
              43.35332956800005
            ],
            [
              -8.521776872999965,
              43.35332775100005
            ],
            [
              -8.521763131999933,
              43.35332474900008
            ],
            [
              -8.521749960999955,
              43.35332060300004
            ],
            [
              -8.521737538999957,
              43.35331536900003
            ],
            [
              -8.521726032999936,
              43.35330911900007
            ],
            [
              -8.521720716999937,
              43.353305668000075
            ],
            [
              -8.516957112999933,
              43.35002902400004
            ],
            [
              -8.516952000999936,
              43.35002529600007
            ],
            [
              -8.516942781999944,
              43.35001727700006
            ],
            [
              -8.516934899999967,
              43.35000853200006
            ],
            [
              -8.516928462999942,
              43.349999178000076
            ],
            [
              -8.516923556999927,
              43.34998934200007
            ],
            [
              -8.516920248999952,
              43.349979157000064
            ],
            [
              -8.516918583999939,
              43.34996876100007
            ],
            [
              -8.516918583999939,
              43.34995829400003
            ],
            [
              -8.516920248999952,
              43.34994789700005
            ],
            [
              -8.516923556999927,
              43.34993771200004
            ],
            [
              -8.516928462999942,
              43.34992787600004
            ],
            [
              -8.516934899999967,
              43.34991852300004
            ],
            [
              -8.516942781999944,
              43.34990977800004
            ],
            [
              -8.51694865199994,
              43.34990445700004
            ],
            [
              -8.51806445099993,
              43.34896824300006
            ],
            [
              -8.518067801999962,
              43.348965544000066
            ],
            [
              -8.518078233999972,
              43.34895836100003
            ],
            [
              -8.518089738999947,
              43.34895211000003
            ],
            [
              -8.518102160999945,
              43.34894687700006
            ],
            [
              -8.518115330999933,
              43.34894273100008
            ],
            [
              -8.518129070999976,
              43.34893972900005
            ],
            [
              -8.518143195999926,
              43.348937911000064
            ],
            [
              -8.518157514999928,
              43.34893730300007
            ],
            [
              -8.51817183299994,
              43.348937911000064
            ],
            [
              -8.518185957999947,
              43.34893972900005
            ],
            [
              -8.518199698999979,
              43.34894273100008
            ],
            [
              -8.518212868999967,
              43.34894687700006
            ],
            [
              -8.518225289999975,
              43.34895211000003
            ],
            [
              -8.51823679499995,
              43.34895836100003
            ],
            [
              -8.51824722699996,
              43.348965544000066
            ],
            [
              -8.518253174999927,
              43.34897049500006
            ],
            [
              -8.52267345699994,
              43.352933705000055
            ],
            [
              -8.522676733999958,
              43.352936775000046
            ],
            [
              -8.522684615999935,
              43.35294552100004
            ],
            [
              -8.52269105299996,
              43.352954874000034
            ],
            [
              -8.522695958999975,
              43.35296471000004
            ],
            [
              -8.52269926699995,
              43.352974895000045
            ],
            [
              -8.522700932999953,
              43.35298529200003
            ],
            [
              -8.522700932999953,
              43.352995759000066
            ],
            [
              -8.52269926699995,
              43.35300615500006
            ],
            [
              -8.522695958999975,
              43.35301634000007
            ],
            [
              -8.52269105399995,
              43.35302617600007
            ],
            [
              -8.522684615999935,
              43.35303553000006
            ],
            [
              -8.522676733999958,
              43.35304427500006
            ],
            [
              -8.522667513999977,
              43.353052293000076
            ],
            [
              -8.522657080999977,
              43.353059476000055
            ],
            [
              -8.522645574999956,
              43.35306572700006
            ],
            [
              -8.522633152999958,
              43.353070960000025
            ],
            [
              -8.52262774299993,
              43.35307282500003
            ]
          ],
          [
            [
              -8.379594596999937,
              43.35783136800006
            ],
            [
              -8.379580275999956,
              43.35783076000007
            ],
            [
              -8.37956614899997,
              43.357828942000026
            ],
            [
              -8.379552406999949,
              43.357825940000055
            ],
            [
              -8.379539234999982,
              43.357821794000074
            ],
            [
              -8.379526811999938,
              43.35781656100005
            ],
            [
              -8.379515304999927,
              43.35781031000005
            ],
            [
              -8.379504870999938,
              43.35780312700007
            ],
            [
              -8.379495649999967,
              43.35779510900005
            ],
            [
              -8.379491382999959,
              43.35779065100007
            ],
            [
              -8.378203923999934,
              43.35635529800004
            ],
            [
              -8.378200309999954,
              43.35635101100007
            ],
            [
              -8.37819387199994,
              43.356341658000076
            ],
            [
              -8.378188965999925,
              43.35633182200007
            ],
            [
              -8.37818565799995,
              43.356321637000065
            ],
            [
              -8.378183991999947,
              43.356311240000025
            ],
            [
              -8.378183991999947,
              43.356300773000044
            ],
            [
              -8.37818565799995,
              43.35629037700005
            ],
            [
              -8.378188965999925,
              43.35628019200004
            ],
            [
              -8.37819387199994,
              43.35627035600004
            ],
            [
              -8.378200309999954,
              43.35626100200005
            ],
            [
              -8.378208191999931,
              43.35625225700005
            ],
            [
              -8.378217412999959,
              43.356244239000034
            ],
            [
              -8.378227846999948,
              43.356237056000055
            ],
            [
              -8.378236131999927,
              43.35623240500007
            ],
            [
              -8.386132549999957,
              43.35217579600004
            ],
            [
              -8.38613578099995,
              43.352174191000074
            ],
            [
              -8.386148202999948,
              43.35216895800005
            ],
            [
              -8.386161373999926,
              43.35216481200007
            ],
            [
              -8.386175114999958,
              43.35216181000004
            ],
            [
              -8.386189240999954,
              43.352159992000054
            ],
            [
              -8.386203559999956,
              43.35215938300007
            ],
            [
              -8.386217878999958,
              43.352159992000054
            ],
            [
              -8.386232004999954,
              43.35216181000004
            ],
            [
              -8.38624574599993,
              43.35216481200007
            ],
            [
              -8.386258916999964,
              43.35216895800005
            ],
            [
              -8.386271338999961,
              43.352174191000074
            ],
            [
              -8.386282843999936,
              43.352180442000076
            ],
            [
              -8.386290624999958,
              43.35218563500007
            ],
            [
              -8.391526296999928,
              43.35599261600004
            ],
            [
              -8.391528954999956,
              43.35599460900005
            ],
            [
              -8.391538175999926,
              43.356002627000066
            ],
            [
              -8.39154605799996,
              43.35601137200007
            ],
            [
              -8.391552495999974,
              43.356020726000054
            ],
            [
              -8.391557401999933,
              43.35603056200006
            ],
            [
              -8.391560709999965,
              43.356040747000065
            ],
            [
              -8.391562375999968,
              43.35605114300006
            ],
            [
              -8.391562375999968,
              43.35606161000004
            ],
            [
              -8.391560709999965,
              43.35607200700008
            ],
            [
              -8.391557401999933,
              43.35608219200003
            ],
            [
              -8.391552495999974,
              43.356092028000035
            ],
            [
              -8.39154605799996,
              43.35610138100003
            ],
            [
              -8.391538227999945,
              43.35611007500006
            ],
            [
              -8.38982161599995,
              43.35779505900007
            ],
            [
              -8.389821564999977,
              43.35779510900005
            ],
            [
              -8.38981234399995,
              43.35780312700007
            ],
            [
              -8.38980190999996,
              43.35781031000005
            ],
            [
              -8.38979040299995,
              43.35781656100005
            ],
            [
              -8.389777979999963,
              43.357821794000074
            ],
            [
              -8.389764807999939,
              43.357825940000055
            ],
            [
              -8.389751065999974,
              43.357828942000026
            ],
            [
              -8.389736938999931,
              43.35783076000007
            ],
            [
              -8.38972261799995,
              43.35783136800006
            ],
            [
              -8.38970829699997,
              43.35783076000007
            ],
            [
              -8.389694169999927,
              43.357828942000026
            ],
            [
              -8.389680427999963,
              43.357825940000055
            ],
            [
              -8.389667255999939,
              43.357821794000074
            ],
            [
              -8.389654832999952,
              43.35781656100005
            ],
            [
              -8.389643325999941,
              43.35781031000005
            ],
            [
              -8.389636418999942,
              43.357805746000054
            ],
            [
              -8.385334369999953,
              43.35473906100003
            ],
            [
              -8.379668201999948,
              43.357813589000045
            ],
            [
              -8.379662381999935,
              43.35781656100005
            ],
            [
              -8.379649958999948,
              43.357821794000074
            ],
            [
              -8.379636786999981,
              43.357825940000055
            ],
            [
              -8.37962304499996,
              43.357828942000026
            ],
            [
              -8.379608917999974,
              43.35783076000007
            ],
            [
              -8.379594596999937,
              43.35783136800006
            ]
          ],
          [
            [
              -8.45404198999995,
              43.360070138000026
            ],
            [
              -8.45402766899997,
              43.36006952900004
            ],
            [
              -8.454013540999938,
              43.360067712000046
            ],
            [
              -8.453999798999973,
              43.360064710000074
            ],
            [
              -8.45398662599996,
              43.36006056400004
            ],
            [
              -8.453974202999973,
              43.36005533000008
            ],
            [
              -8.453969832999974,
              43.360053134000054
            ],
            [
              -8.452046583999959,
              43.35904109100005
            ],
            [
              -8.450352239999972,
              43.35871771600006
            ],
            [
              -8.450341265999953,
              43.358715217000054
            ],
            [
              -8.450328093999929,
              43.35871107200006
            ],
            [
              -8.450317129999974,
              43.35870652700004
            ],
            [
              -8.448776879999969,
              43.357989806000035
            ],
            [
              -8.44646247199995,
              43.35915711400003
            ],
            [
              -8.446460116999958,
              43.35915827200006
            ],
            [
              -8.446447692999925,
              43.35916350600007
            ],
            [
              -8.446434520999958,
              43.35916765200005
            ],
            [
              -8.446420778999936,
              43.359170654000025
            ],
            [
              -8.446406650999961,
              43.35917247100008
            ],
            [
              -8.44639232999998,
              43.35917308000006
            ],
            [
              -8.446378008999943,
              43.35917247100008
            ],
            [
              -8.446363881999957,
              43.359170654000025
            ],
            [
              -8.446350138999946,
              43.35916765200005
            ],
            [
              -8.44633696699998,
              43.35916350600007
            ],
            [
              -8.446324543999935,
              43.35915827200006
            ],
            [
              -8.446313223999937,
              43.359152136000034
            ],
            [
              -8.445648035999966,
              43.358746505000056
            ],
            [
              -8.445647848999954,
              43.35874639100007
            ],
            [
              -8.445637414999965,
              43.35873920800003
            ],
            [
              -8.445628193999937,
              43.35873119000007
            ],
            [
              -8.445623745999967,
              43.35872653000007
            ],
            [
              -8.444360605999975,
              43.35731000900006
            ],
            [
              -8.44310545299993,
              43.35613443600005
            ],
            [
              -8.442041987999971,
              43.355469440000036
            ],
            [
              -8.442032530999938,
              43.355462861000035
            ],
            [
              -8.442023310999957,
              43.355454843000075
            ],
            [
              -8.442015427999934,
              43.35544609800007
            ],
            [
              -8.442011673999957,
              43.35544097800005
            ],
            [
              -8.441319947999943,
              43.35441980500008
            ],
            [
              -8.43831120599998,
              43.35313469500005
            ],
            [
              -8.436025996999945,
              43.35310392300005
            ],
            [
              -8.436013954999964,
              43.35310333000007
            ],
            [
              -8.435999828999968,
              43.35310151200008
            ],
            [
              -8.435986087999936,
              43.35309851000005
            ],
            [
              -8.435972916999958,
              43.35309436400007
            ],
            [
              -8.43596049499996,
              43.35308913100005
            ],
            [
              -8.43594898899994,
              43.353082880000045
            ],
            [
              -8.43593855599994,
              43.353075697000065
            ],
            [
              -8.435929335999958,
              43.35306767900005
            ],
            [
              -8.435921453999981,
              43.353058934000046
            ],
            [
              -8.435915015999967,
              43.35304958000006
            ],
            [
              -8.435910109999952,
              43.35303974400006
            ],
            [
              -8.435909705999961,
              43.353038738000066
            ],
            [
              -8.435137233999967,
              43.35107276700006
            ],
            [
              -8.435134329999926,
              43.351063589000034
            ],
            [
              -8.43513266499997,
              43.35105319200005
            ],
            [
              -8.43513266499997,
              43.35104272500007
            ],
            [
              -8.435134329999926,
              43.35103232900008
            ],
            [
              -8.435137637999958,
              43.35102214400007
            ],
            [
              -8.435142543999973,
              43.351012308000065
            ],
            [
              -8.43514898099994,
              43.35100295400008
            ],
            [
              -8.435156862999975,
              43.35099420900008
            ],
            [
              -8.435166082999956,
              43.35098619100006
            ],
            [
              -8.435176515999956,
              43.35097900800008
            ],
            [
              -8.43518802099993,
              43.35097275700008
            ],
            [
              -8.435195312999952,
              43.35096951500003
            ],
            [
              -8.437005023999973,
              43.35022638500004
            ],
            [
              -8.439525396999954,
              43.34842468200003
            ],
            [
              -8.439532425999971,
              43.34842003000006
            ],
            [
              -8.439543930999946,
              43.348413780000044
            ],
            [
              -8.439556351999954,
              43.34840854600003
            ],
            [
              -8.439569521999942,
              43.34840440000005
            ],
            [
              -8.439575912999942,
              43.348402846000056
            ],
            [
              -8.441550015999951,
              43.347965937000026
            ],
            [
              -8.441557367999962,
              43.34796448900005
            ],
            [
              -8.44157149299997,
              43.34796267100006
            ],
            [
              -8.441585811999971,
              43.34796206300007
            ],
            [
              -8.441600129999927,
              43.34796267100006
            ],
            [
              -8.441607977999979,
              43.34796352800004
            ],
            [
              -8.444182894999926,
              43.34830681400007
            ],
            [
              -8.444189175999952,
              43.34830777500008
            ],
            [
              -8.444202915999938,
              43.34831077700005
            ],
            [
              -8.444216085999926,
              43.34831492300003
            ],
            [
              -8.44422665199994,
              43.34831928400007
            ],
            [
              -8.445342449999941,
              43.348834209000074
            ],
            [
              -8.445344305999981,
              43.34883508200005
            ],
            [
              -8.445355810999956,
              43.34884133300005
            ],
            [
              -8.445366243999956,
              43.34884851600003
            ],
            [
              -8.445375462999948,
              43.34885653400005
            ],
            [
              -8.445383344999925,
              43.34886527900005
            ],
            [
              -8.44538978199995,
              43.34887463300004
            ],
            [
              -8.445394687999965,
              43.34888446900004
            ],
            [
              -8.44539799499995,
              43.34889465400005
            ],
            [
              -8.445399660999954,
              43.34890505000004
            ],
            [
              -8.445399660999954,
              43.34891551800007
            ],
            [
              -8.44539799499995,
              43.34892591400006
            ],
            [
              -8.445394687999965,
              43.34893609900007
            ],
            [
              -8.44538978199995,
              43.348945935000074
            ],
            [
              -8.445383344999925,
              43.34895528900006
            ],
            [
              -8.445375463999937,
              43.34896403400006
            ],
            [
              -8.445372259999942,
              43.34896703900006
            ],
            [
              -8.445061283999962,
              43.34924638600006
            ],
            [
              -8.445554724999965,
              43.34986355400008
            ],
            [
              -8.445560544999978,
              43.34987177900007
            ],
            [
              -8.446652207999932,
              43.35163062600003
            ],
            [
              -8.447441544999947,
              43.35261240600005
            ],
            [
              -8.44958977899995,
              43.35316814000004
            ],
            [
              -8.450278712999932,
              43.352992131000065
            ],
            [
              -8.450543052999933,
              43.35216427100005
            ],
            [
              -8.450951605999933,
              43.35113219900006
            ],
            [
              -8.45095194199996,
              43.35113136600006
            ],
            [
              -8.450956847999976,
              43.35112153000006
            ],
            [
              -8.450963284999943,
              43.35111217600007
            ],
            [
              -8.450971166999977,
              43.35110343100007
            ],
            [
              -8.450980386999959,
              43.35109541300005
            ],
            [
              -8.450990819999959,
              43.35108823000007
            ],
            [
              -8.451002324999934,
              43.35108197900007
            ],
            [
              -8.451014746999931,
              43.35107674600005
            ],
            [
              -8.451027916999976,
              43.351072600000066
            ],
            [
              -8.451041657999951,
              43.35106959800004
            ],
            [
              -8.451055783999948,
              43.35106778000005
            ],
            [
              -8.45107010299995,
              43.35106717200006
            ],
            [
              -8.451084421999951,
              43.35106778000005
            ],
            [
              -8.451098546999958,
              43.35106959800004
            ],
            [
              -8.451112287999933,
              43.351072600000066
            ],
            [
              -8.451114556999926,
              43.351073221000036
            ],
            [
              -8.452063481999971,
              43.351340780000044
            ],
            [
              -8.452660433999938,
              43.35051208200008
            ],
            [
              -8.451275151999937,
              43.35003719400004
            ],
            [
              -8.45127223999998,
              43.35003616100005
            ],
            [
              -8.451259817999926,
              43.350030927000034
            ],
            [
              -8.451248312999951,
              43.35002467700008
            ],
            [
              -8.451237879999951,
              43.35001749400004
            ],
            [
              -8.45122866099996,
              43.350009476000025
            ],
            [
              -8.451220778999925,
              43.35000073000003
            ],
            [
              -8.451214341999957,
              43.34999137700004
            ],
            [
              -8.451211102999935,
              43.34998530200005
            ],
            [
              -8.450655034999954,
              43.348818866000045
            ],
            [
              -8.450163804999931,
              43.34802676900006
            ],
            [
              -8.450162919999968,
              43.34802530700006
            ],
            [
              -8.450158013999953,
              43.34801547100005
            ],
            [
              -8.450154706999967,
              43.348005286000046
            ],
            [
              -8.450153040999965,
              43.34799489000005
            ],
            [
              -8.450153040999965,
              43.34798442300007
            ],
            [
              -8.450154706999967,
              43.34797402600003
            ],
            [
              -8.450158013999953,
              43.34796384100008
            ],
            [
              -8.450161781999952,
              43.34795599600005
            ],
            [
              -8.450644580999949,
              43.34708216700005
            ],
            [
              -8.450645718999965,
              43.34708017600008
            ],
            [
              -8.450652155999933,
              43.34707082300008
            ],
            [
              -8.450660036999977,
              43.34706207700003
            ],
            [
              -8.45066925599997,
              43.34705405900007
            ],
            [
              -8.450671395999962,
              43.34705244500003
            ],
            [
              -8.451573179999968,
              43.346388853000065
            ],
            [
              -8.45312942499993,
              43.34527272400004
            ],
            [
              -8.453136594999933,
              43.345267971000055
            ],
            [
              -8.453148098999975,
              43.34526172000005
            ],
            [
              -8.453160518999937,
              43.34525648700003
            ],
            [
              -8.453169592999927,
              43.34525348900007
            ],
            [
              -8.453827574999934,
              43.345059097000046
            ],
            [
              -8.454859203999945,
              43.34415574800005
            ],
            [
              -8.454864235999935,
              43.34415160800006
            ],
            [
              -8.454874667999945,
              43.344144425000025
            ],
            [
              -8.454886170999941,
              43.34413817400008
            ],
            [
              -8.454891656999962,
              43.34413568900004
            ],
            [
              -8.457412931999954,
              43.34305893900006
            ],
            [
              -8.457419868999978,
              43.34305619000003
            ],
            [
              -8.457433037999976,
              43.343052044000046
            ],
            [
              -8.457446776999973,
              43.343049042000075
            ],
            [
              -8.457460900999934,
              43.34304722400003
            ],
            [
              -8.457466462999946,
              43.343046843000025
            ],
            [
              -8.458968497999933,
              43.34296881700004
            ],
            [
              -8.45897725499998,
              43.342968590000055
            ],
            [
              -8.458991571999945,
              43.34296919800005
            ],
            [
              -8.459005695999963,
              43.342971016000035
            ],
            [
              -8.45901943499996,
              43.34297401800006
            ],
            [
              -8.459032251999929,
              43.342978035000044
            ],
            [
              -8.460491371999979,
              43.34350861100006
            ],
            [
              -8.46049172599993,
              43.34350874000006
            ],
            [
              -8.460504145999948,
              43.34351397300003
            ],
            [
              -8.460515649999934,
              43.34352022400003
            ],
            [
              -8.460518715999967,
              43.34352216500008
            ],
            [
              -8.461162445999946,
              43.34394350100007
            ],
            [
              -8.46116981199998,
              43.343948743000055
            ],
            [
              -8.461179030999972,
              43.34395676200006
            ],
            [
              -8.46118691199996,
              43.343965507000064
            ],
            [
              -8.461193347999938,
              43.34397486100005
            ],
            [
              -8.461198253999953,
              43.343984696000064
            ],
            [
              -8.461201560999939,
              43.34399488200006
            ],
            [
              -8.461203225999952,
              43.344005278000054
            ],
            [
              -8.461203378999926,
              43.344013207000046
            ],
            [
              -8.46118192299997,
              43.344535972000074
            ],
            [
              -8.46118176999994,
              43.34453851000006
            ],
            [
              -8.461180104999926,
              43.344548907000046
            ],
            [
              -8.46117679699995,
              43.344559092000054
            ],
            [
              -8.46117531799996,
              43.34456245500007
            ],
            [
              -8.460874911999952,
              43.345202252000036
            ],
            [
              -8.460871485999974,
              43.34520872400003
            ],
            [
              -8.460865048999949,
              43.34521807800007
            ],
            [
              -8.460857167999961,
              43.345226823000075
            ],
            [
              -8.46084794899997,
              43.345234841000035
            ],
            [
              -8.460837516999959,
              43.34524202400007
            ],
            [
              -8.460826012999973,
              43.345248275000074
            ],
            [
              -8.460813591999965,
              43.34525350800004
            ],
            [
              -8.460800422999966,
              43.34525765400008
            ],
            [
              -8.46079356499996,
              43.34525931200005
            ],
            [
              -8.460341425999957,
              43.345357955000054
            ],
            [
              -8.460280655999952,
              43.346440725000036
            ],
            [
              -8.460280550999926,
              43.346442274000026
            ],
            [
              -8.46027888599997,
              43.346452671000065
            ],
            [
              -8.460275578999926,
              43.34646285600007
            ],
            [
              -8.460270672999968,
              43.34647269200008
            ],
            [
              -8.460264235999944,
              43.34648204500007
            ],
            [
              -8.460256354999956,
              43.346490791000065
            ],
            [
              -8.460247135999964,
              43.346498809000025
            ],
            [
              -8.460236703999954,
              43.34650599200006
            ],
            [
              -8.460225199999968,
              43.346512242000074
            ],
            [
              -8.46021277899996,
              43.34651747600003
            ],
            [
              -8.460199608999972,
              43.34652162200007
            ],
            [
              -8.460185868999929,
              43.34652462400004
            ],
            [
              -8.460174808999966,
              43.34652615200008
            ],
            [
              -8.458899899999949,
              43.34665860000007
            ],
            [
              -8.458579912999937,
              43.34740032700006
            ],
            [
              -8.45857658899996,
              43.34740708000004
            ],
            [
              -8.45758953799998,
              43.349185926000075
            ],
            [
              -8.457588468999973,
              43.349187792000066
            ],
            [
              -8.457582031999948,
              43.34919714600005
            ],
            [
              -8.45757415099996,
              43.349205891000054
            ],
            [
              -8.457564930999979,
              43.34921391000006
            ],
            [
              -8.457554497999979,
              43.34922109300004
            ],
            [
              -8.457551752999962,
              43.34922272500006
            ],
            [
              -8.456092630999933,
              43.350065319000066
            ],
            [
              -8.456083872999955,
              43.35006993600007
            ],
            [
              -8.456071450999957,
              43.350075170000025
            ],
            [
              -8.456058280999969,
              43.35007931500007
            ],
            [
              -8.456044539999937,
              43.350082318000034
            ],
            [
              -8.45603041499993,
              43.35008413500003
            ],
            [
              -8.456016095999928,
              43.35008474400007
            ],
            [
              -8.45600985699997,
              43.35008462800005
            ],
            [
              -8.453565218999927,
              43.34999423900007
            ],
            [
              -8.452616254999953,
              43.35169062500006
            ],
            [
              -8.454772046999949,
              43.35228216400003
            ],
            [
              -8.454783992999978,
              43.352285979000044
            ],
            [
              -8.454796414999976,
              43.35229121300006
            ],
            [
              -8.45480791999995,
              43.35229746300007
            ],
            [
              -8.45481835399994,
              43.35230464600005
            ],
            [
              -8.454827573999978,
              43.35231266400007
            ],
            [
              -8.454835455999955,
              43.35232141000006
            ],
            [
              -8.45484189299998,
              43.352330763000055
            ],
            [
              -8.454846798999938,
              43.35234059900006
            ],
            [
              -8.45485010699997,
              43.352350784000066
            ],
            [
              -8.454851771999927,
              43.35236118100005
            ],
            [
              -8.454851771999927,
              43.35237164800003
            ],
            [
              -8.45485010699997,
              43.35238204400008
            ],
            [
              -8.454846798999938,
              43.35239222900003
            ],
            [
              -8.454846691999933,
              43.35239248800008
            ],
            [
              -8.453215915999976,
              43.35632428100007
            ],
            [
              -8.453211116999967,
              43.35633385700004
            ],
            [
              -8.453204679999942,
              43.356343210000034
            ],
            [
              -8.453196796999976,
              43.356351956000026
            ],
            [
              -8.453187575999948,
              43.35635997400004
            ],
            [
              -8.453177142999948,
              43.35636715700008
            ],
            [
              -8.453165635999937,
              43.356373407000035
            ],
            [
              -8.45315321299995,
              43.35637864100005
            ],
            [
              -8.453152861999968,
              43.35637876900006
            ],
            [
              -8.452357370999948,
              43.356667970000046
            ],
            [
              -8.455505089999974,
              43.35910717100006
            ],
            [
              -8.455514229999949,
              43.35911512700005
            ],
            [
              -8.455522112999972,
              43.359123872000055
            ],
            [
              -8.45552855099993,
              43.35913322600004
            ],
            [
              -8.455533457999934,
              43.359143062000044
            ],
            [
              -8.455536765999966,
              43.35915324700005
            ],
            [
              -8.45553843099998,
              43.359163643000045
            ],
            [
              -8.45553843099998,
              43.359174110000026
            ],
            [
              -8.455536765999966,
              43.359184507000066
            ],
            [
              -8.455533457999934,
              43.359194692000074
            ],
            [
              -8.45552855099993,
              43.35920452800008
            ],
            [
              -8.455522112999972,
              43.35921388100007
            ],
            [
              -8.455514229999949,
              43.359222627000065
            ],
            [
              -8.455505008999978,
              43.359230645000025
            ],
            [
              -8.455494574999932,
              43.35923782800006
            ],
            [
              -8.455492904999971,
              43.359238832000074
            ],
            [
              -8.454119612999932,
              43.36005008500007
            ],
            [
              -8.454109777999975,
              43.36005533000008
            ],
            [
              -8.454097353999941,
              43.36006056400004
            ],
            [
              -8.454084181999974,
              43.360064710000074
            ],
            [
              -8.454070438999963,
              43.360067712000046
            ],
            [
              -8.454056311999977,
              43.36006952900004
            ],
            [
              -8.45404198999995,
              43.360070138000026
            ]
          ]
        ]
      },
      "properties": {
        "identifier": "INF0424",
        "country": "ESP",
        "regulationExemption": "No",
        "type": "REQ_AUTHORIZATION",
        "name": "A_Coruña",
        "reasons": "SENSITIVE",
        "message": "Se encuentra en una Zona Geográfica de UAS general por razón de la protección de las instalaciones e infraestructuras.<p><b>Por debajo de 270m, respecto al suelo, se requiere permiso previo y expreso del titular </b>o gestor responsable de la instalación o infraestructura y, en su caso, en las condiciones que éste determine.</p><p>CONTACTO:  917531033; 917531034 Email: seguridadfusioncenter@repsol.com</p>",
        "variant": "COMMON",
        "otherReasonInfo": "",
        "restrictionConditions": "",
        "region": "",
        "extendedProperties": "",
        "issued": "",
        "validFrom": "",
        "validTo": "",
        "provider": "",
        "description": "",
        "otherGeoid": "",
        "technicalLimitation": "",
        "originator": "",
        "purpose": "AUTHORIZATION",
        "intervalBefore": "",
        "service": "",
        "contactName": "",
        "siteURL": "",
        "email": "seguridadfusioncenter@repsol.com",
        "phone": "917531033; 917531034",
        "lower": 0,
        "lowerReference": "AGL",
        "upper": 270.0,
        "upperReference": "AGL",
        "uom": "M",
        "creationDateTime": "2026-03-12T15:01:04",
        "updateDateTime": "2026-03-12T15:01:04",
        "startDateTime": "",
        "endDateTime": "",
        "day": "ANY",
        "startTime": "",
        "startEvent": "",
        "endTime": "",
        "endEvent": "",
        "name_authority": ""
      }
    }
  ]
}
