{
  "type": "FeatureCollection",
  "features": [
    {
      "type": "Feature",
      "geometry": {
        "type": "Polygon",
        "coordinates": [
          [
            [
              -6.840382574999978,
              38.98512289800004
            ],
            [
              -6.784229660999927,
              38.95366435400007
            ],
            [
              -6.784186727999952,
              38.95364030200005
            ],
            [
              -6.757541449999962,
              38.938712828000064
            ],
            [
              -6.757498560999977,
              38.93868880000008
            ],
            [
              -6.70136948399994,
              38.90724364300007
            ],
            [
              -6.7013210889999755,
              38.907216531000074
            ],
            [
              -6.663898257999961,
              38.886251178000066
            ],
            [
              -6.714238143999978,
              38.83134081700007
            ],
            [
              -6.764500724999948,
              38.776408280000055
            ],
            [
              -6.801943886999936,
              38.79736888700006
            ],
            [
              -6.801992243999962,
              38.79739596100006
            ],
            [
              -6.858170498999925,
              38.828844418000074
            ],
            [
              -6.858213357999944,
              38.82886840500004
            ],
            [
              -6.884924436999938,
              38.84382119700007
            ],
            [
              -6.884967334999942,
              38.843845216000034
            ],
            [
              -6.941169607999939,
              38.87530708500003
            ],
            [
              -6.941218126999956,
              38.875334242000065
            ],
            [
              -6.978695386999959,
              38.896313890000044
            ],
            [
              -6.928330545999927,
              38.95123535400006
            ],
            [
              -6.877887924999925,
              39.00613453400007
            ],
            [
              -6.840431127999977,
              38.985150099000066
            ],
            [
              -6.840382574999978,
              38.98512289800004
            ]
          ],
          [
            [
              -6.841420500999959,
              38.84716198000007
            ],
            [
              -6.7852352029999565,
              38.81570555400003
            ],
            [
              -6.751695366999968,
              38.85231735000008
            ],
            [
              -6.718121130999975,
              38.888919275000035
            ],
            [
              -6.774305909999953,
              38.920391582000036
            ],
            [
              -6.774334497999973,
              38.920407596000075
            ],
            [
              -6.80100506499997,
              38.935347310000054
            ],
            [
              -6.801033683999947,
              38.93536334100003
            ],
            [
              -6.857242468999971,
              38.96684911400007
            ],
            [
              -6.890839210999957,
              38.93023971700006
            ],
            [
              -6.924401425999974,
              38.893620430000055
            ],
            [
              -6.86819210699997,
              38.86215057700008
            ],
            [
              -6.868163504999927,
              38.862134559000026
            ],
            [
              -6.841449076999936,
              38.84717797600007
            ],
            [
              -6.841420500999959,
              38.84716198000007
            ]
          ]
        ]
      },
      "properties": {
        "SHAPE_Area": "321103828.407361",
        "limitedApplicability": [
          {
            "startDateTime": "",
            "endDateTime": "",
            "schedule": [
              {
                "day": "ANY",
                "startTime": "",
                "startEvent": "",
                "endTime": "",
                "endEvent": ""
              }
            ]
          }
        ],
        "UASZone": {
          "identifier": "LEBZ45",
          "country": "ESP",
          "name": "BADAJOZ/Talavera La Real",
          "type": "REQ_AUTHORIZATION",
          "variant": "COMMON",
          "restrictionConditions": "",
          "region": "0",
          "reasons": "AIR_TRAFFIC",
          "otherReasonInfo": "",
          "regulationExemption": "No",
          "message": "Se encuentra en la Zona geográfica de UAS General por razón de la seguridad operacional de <elem>BADAJOZ/Talavera La Real </elem>, LEBZ.<p> Por debajo de 45m medidos desde el punto de referencia del aeródromo (185m), no es necesario coordinar la operación. <p><font color=\"#dc143c\"> Por encima de 45m, medidos desde el punto de referencia del aeródromo (185m), NO permitido el vuelo a drones excepto coordinación con el Aeródromo.</font></p><p> <b>Contacto:</b>  TEL: <font color=\"#009fda\">+34-924 209 500</font> ; TEL: <font color=\"#009fda\">+34-924 210 406</font> ;Email: <font color=\"#009fda\">cecoabjz@aena.es</font>  ;Email: <font color=\"#009fda\">preparacion_vuelos_ala23@ea.mde.es</font>  </p>",
          "extendedProperties": "Aeródromo"
        },
        "zoneAuthority": [
          {
            "purpose": "AUTHORIZATION",
            "intervalBefore": "",
            "name": "",
            "service": "",
            "contactName": "",
            "siteURL": "",
            "email": "cecoabjz@aena.es;preparacion_vuelos_ala23@ea.mde.es",
            "phone": "+34-924 209 500;+34-924 210 406"
          }
        ],
        "dataSource": {
          "creationDateTime": "2025-10-01T12:13:44",
          "updateDateTime": "2026-06-08T10:30:46",
          "originator": ""
        },
        "verticalLayer": {
          "upper": 900,
          "upperReference": "AGL",
          "lower": 45,
          "lowerReference": "AGL",
          "UOM": "M"
        },
        "datasetMetadata": {
          "provider": "",
          "issued": "",
          "validFrom": "",
          "validTo": "",
          "description": "",
          "otherGeoid": "",
          "technicalLimitation": ""
        }
      }
    },
    {
      "type": "Feature",
      "geometry": {
        "type": "Polygon",
        "coordinates": [
          [
            [
              2.1330914190000385,
              41.40352150500007
            ],
            [
              2.1345577470000308,
              41.40256859100003
            ],
            [
              2.135960166000075,
              41.40156263500006
            ],
            [
              2.1372952940000687,
              41.40050606300008
            ],
            [
              2.1385599160000197,
              41.39940142200004
            ],
            [
              2.13975098800006,
              41.398251377000065
            ],
            [
              2.1408656400000723,
              41.39705870000006
            ],
            [
              2.1419011900000555,
              41.395826267000075
            ],
            [
              2.142855146000045,
              41.394557048000024
            ],
            [
              2.1437252120000494,
              41.39325410300006
            ],
            [
              2.1445092980000595,
              41.39192057400004
            ],
            [
              2.1452055160000327,
              41.39055967400003
            ],
            [
              2.1458121970000548,
              41.38917468400007
            ],
            [
              2.146327882000037,
              41.38776894100005
            ],
            [
              2.1467513360000225,
              41.38634583400005
            ],
            [
              2.14708154300007,
              41.38490879200003
            ],
            [
              2.1473177150000424,
              41.38346127700004
            ],
            [
              2.14745928800005,
              41.38200677800006
            ],
            [
              2.1475059270000543,
              41.38054879800006
            ],
            [
              2.147457528000075,
              41.37909085000007
            ],
            [
              2.147314212000026,
              41.37763644700004
            ],
            [
              2.1470763300000613,
              41.37618909200006
            ],
            [
              2.146744464000051,
              41.374752270000045
            ],
            [
              2.1463194180000755,
              41.373329444000035
            ],
            [
              2.1458022210000536,
              41.37192403800003
            ],
            [
              2.145194125000046,
              41.37053943900003
            ],
            [
              2.1444966010000712,
              41.36917898000007
            ],
            [
              2.1437113320000662,
              41.36784593700003
            ],
            [
              2.1428402160000246,
              41.36654351900006
            ],
            [
              2.141885354000067,
              41.365274863000025
            ],
            [
              2.140849051000032,
              41.36404302200003
            ],
            [
              2.1397338050000485,
              41.36285096300003
            ],
            [
              2.1385423060000335,
              41.361701554000035
            ],
            [
              2.1372774240000467,
              41.360597563000056
            ],
            [
              2.1359422090000635,
              41.359541646000025
            ],
            [
              2.134539878000055,
              41.35853634600005
            ],
            [
              2.133073808000063,
              41.35758408100003
            ],
            [
              2.131547531000024,
              41.356687143000045
            ],
            [
              2.1299647210000217,
              41.355847691000065
            ],
            [
              2.1283291890000555,
              41.35506774500004
            ],
            [
              2.1266448740000214,
              41.35434918200008
            ],
            [
              2.1249158300000204,
              41.35369373100008
            ],
            [
              2.123146218000045,
              41.35310296800003
            ],
            [
              2.1213402970000743,
              41.35257831700005
            ],
            [
              2.1195024130000206,
              41.352121038000064
            ],
            [
              2.117636988000072,
              41.351732232000074
            ],
            [
              2.1157485120000388,
              41.35141283400003
            ],
            [
              2.1138415270000337,
              41.35116361300004
            ],
            [
              2.1119206220000706,
              41.35098516800008
            ],
            [
              2.1099904190000416,
              41.350877930000024
            ],
            [
              2.1080555600000253,
              41.350842155000066
            ],
            [
              2.1061207010000658,
              41.350877930000024
            ],
            [
              2.1041904980000368,
              41.35098516800008
            ],
            [
              2.1022695930000737,
              41.35116361300004
            ],
            [
              2.1003626080000686,
              41.35141283400003
            ],
            [
              2.0984741320000353,
              41.351732232000074
            ],
            [
              2.09660870700003,
              41.352121038000064
            ],
            [
              2.094770823000033,
              41.35257831700005
            ],
            [
              2.0929649020000625,
              41.35310296800003
            ],
            [
              2.09119529000003,
              41.35369373100008
            ],
            [
              2.089466246000029,
              41.35434918200008
            ],
            [
              2.087781931000052,
              41.35506774500004
            ],
            [
              2.086146399000029,
              41.355847691000065
            ],
            [
              2.0845635890000267,
              41.356687143000045
            ],
            [
              2.0830373120000445,
              41.35758408100003
            ],
            [
              2.0815712420000523,
              41.35853634600005
            ],
            [
              2.080168911000044,
              41.359541646000025
            ],
            [
              2.0788336960000606,
              41.360597563000056
            ],
            [
              2.077568814000074,
              41.361701554000035
            ],
            [
              2.076377315000059,
              41.36285096300003
            ],
            [
              2.0752620690000754,
              41.36404302200003
            ],
            [
              2.0742257660000405,
              41.365274863000025
            ],
            [
              2.073270904000026,
              41.36654351900006
            ],
            [
              2.072399788000041,
              41.36784593700003
            ],
            [
              2.071614519000036,
              41.36917898000007
            ],
            [
              2.070916994000072,
              41.37053943900003
            ],
            [
              2.0703088990000538,
              41.37192403800003
            ],
            [
              2.069791702000032,
              41.373329444000035
            ],
            [
              2.0693666560000565,
              41.374752270000045
            ],
            [
              2.0690347890000567,
              41.37618909200006
            ],
            [
              2.0687969080000244,
              41.37763644700004
            ],
            [
              2.0686535920000324,
              41.37909085000007
            ],
            [
              2.068605193000053,
              41.38054879800006
            ],
            [
              2.0686518320000573,
              41.38200677800006
            ],
            [
              2.068793405000065,
              41.38346127700004
            ],
            [
              2.0690295770000375,
              41.38490879200003
            ],
            [
              2.069359784000028,
              41.38634583400005
            ],
            [
              2.0697832380000705,
              41.38776894100005
            ],
            [
              2.0702989230000526,
              41.38917468400007
            ],
            [
              2.0709056040000746,
              41.39055967400003
            ],
            [
              2.071601822000048,
              41.39192057400004
            ],
            [
              2.072385908000058,
              41.39325410300006
            ],
            [
              2.0732559740000625,
              41.394557048000024
            ],
            [
              2.074209930000052,
              41.395826267000075
            ],
            [
              2.075245480000035,
              41.39705870000006
            ],
            [
              2.0763601320000475,
              41.398251377000065
            ],
            [
              2.077551204000031,
              41.39940142200004
            ],
            [
              2.0788158260000387,
              41.40050606300008
            ],
            [
              2.0801509540000325,
              41.40156263500006
            ],
            [
              2.0815533730000197,
              41.40256859100003
            ],
            [
              2.083019701000069,
              41.40352150500007
            ],
            [
              2.0845464060000722,
              41.404419079000036
            ],
            [
              2.0861298100000454,
              41.40525914800003
            ],
            [
              2.0877660940000737,
              41.40603968700003
            ],
            [
              2.089451315000076,
              41.40675881300007
            ],
            [
              2.0911814090000576,
              41.407414791000065
            ],
            [
              2.092952205000074,
              41.40800604000003
            ],
            [
              2.094759431000057,
              41.408531132000064
            ],
            [
              2.0965987310000287,
              41.40898880200007
            ],
            [
              2.0984656670000277,
              41.409377945000074
            ],
            [
              2.1003557370000294,
              41.409697623000056
            ],
            [
              2.1022643810000545,
              41.40994706500004
            ],
            [
              2.1041869950000205,
              41.41012566900008
            ],
            [
              2.106118941000034,
              41.41023300400008
            ],
            [
              2.1080555600000253,
              41.41026881100004
            ],
            [
              2.1099921790000735,
              41.41023300400008
            ],
            [
              2.11192412500003,
              41.41012566900008
            ],
            [
              2.113846739000053,
              41.40994706500004
            ],
            [
              2.115755383000021,
              41.409697623000056
            ],
            [
              2.117645453000023,
              41.409377945000074
            ],
            [
              2.119512389000022,
              41.40898880200007
            ],
            [
              2.1213516890000506,
              41.408531132000064
            ],
            [
              2.123158915000033,
              41.40800604000003
            ],
            [
              2.12492971100005,
              41.407414791000065
            ],
            [
              2.126659805000031,
              41.40675881300007
            ],
            [
              2.1283450260000336,
              41.40603968700003
            ],
            [
              2.129981310000062,
              41.40525914800003
            ],
            [
              2.131564714000035,
              41.404419079000036
            ],
            [
              2.1330914190000385,
              41.40352150500007
            ]
          ],
          [
            [
              2.1063803800000755,
              41.358080820000055
            ],
            [
              2.1080555600000253,
              41.35804542000005
            ],
            [
              2.109730740000032,
              41.358080820000055
            ],
            [
              2.111400660000072,
              41.35818691000003
            ],
            [
              2.113060060000066,
              41.358363360000055
            ],
            [
              2.1147037300000306,
              41.35860960000008
            ],
            [
              2.1163265000000706,
              41.358924880000075
            ],
            [
              2.1179232800000705,
              41.359308190000036
            ],
            [
              2.119489040000076,
              41.35975834000004
            ],
            [
              2.1210188600000492,
              41.36027390000004
            ],
            [
              2.1225079300000402,
              41.36085325000005
            ],
            [
              2.123951570000031,
              41.36149459000006
            ],
            [
              2.1253452400000583,
              41.36219588000006
            ],
            [
              2.126684560000058,
              41.36295492000005
            ],
            [
              2.127965300000028,
              41.36376934000003
            ],
            [
              2.1291834600000357,
              41.364636560000065
            ],
            [
              2.1303351800000314,
              41.365553860000034
            ],
            [
              2.1314168600000585,
              41.36651836000004
            ],
            [
              2.1324250700000675,
              41.36752702000007
            ],
            [
              2.133356660000061,
              41.36857667000004
            ],
            [
              2.1342086900000368,
              41.36966402000007
            ],
            [
              2.1349784700000214,
              41.370785640000065
            ],
            [
              2.1356635700000197,
              41.37193800000006
            ],
            [
              2.1362618500000394,
              41.373117480000076
            ],
            [
              2.136771410000051,
              41.37432038000003
            ],
            [
              2.1371906500000364,
              41.37554290000003
            ],
            [
              2.137518230000069,
              41.37678121000005
            ],
            [
              2.1377531400000294,
              41.378031400000054
            ],
            [
              2.137894610000046,
              41.37928954000006
            ],
            [
              2.1379422000000545,
              41.38055168000005
            ],
            [
              2.137895760000049,
              41.38181384000006
            ],
            [
              2.137755430000027,
              41.383072060000075
            ],
            [
              2.1375216400000454,
              41.38432237000006
            ],
            [
              2.137195120000058,
              41.38556084000004
            ],
            [
              2.1367768900000215,
              41.386783570000034
            ],
            [
              2.1362682800000243,
              41.387986710000064
            ],
            [
              2.1356708600000616,
              41.38916648000003
            ],
            [
              2.134986520000041,
              41.390319170000055
            ],
            [
              2.134217410000076,
              41.39144114000004
            ],
            [
              2.133365950000041,
              41.39252886000003
            ],
            [
              2.1324348000000555,
              41.39357891000003
            ],
            [
              2.131426900000065,
              41.39458799000005
            ],
            [
              2.130345420000026,
              41.39555291000005
            ],
            [
              2.129193760000021,
              41.396470640000075
            ],
            [
              2.1279755400000226,
              41.39733829000005
            ],
            [
              2.1266946000000644,
              41.398153130000026
            ],
            [
              2.1253549700000463,
              41.39891258000006
            ],
            [
              2.123960860000068,
              41.39961427000003
            ],
            [
              2.1225166600000307,
              41.400255980000054
            ],
            [
              2.12102692000002,
              41.400835690000065
            ],
            [
              2.119496330000061,
              41.40135157000003
            ],
            [
              2.1179297100000554,
              41.40180200000003
            ],
            [
              2.116331990000049,
              41.40218556000008
            ],
            [
              2.1147082000000523,
              41.40250105000007
            ],
            [
              2.113063460000035,
              41.40274746000006
            ],
            [
              2.1114029500000697,
              41.402924030000065
            ],
            [
              2.1097318900000346,
              41.40303019000004
            ],
            [
              2.1080555600000253,
              41.403065610000056
            ],
            [
              2.1063792300000728,
              41.40303019000004
            ],
            [
              2.1047081700000376,
              41.402924030000065
            ],
            [
              2.1030476600000725,
              41.40274746000006
            ],
            [
              2.101402920000055,
              41.40250105000007
            ],
            [
              2.0997791300000586,
              41.40218556000008
            ],
            [
              2.098181410000052,
              41.40180200000003
            ],
            [
              2.0966147900000465,
              41.40135157000003
            ],
            [
              2.0950842000000307,
              41.400835690000065
            ],
            [
              2.09359446000002,
              41.400255980000054
            ],
            [
              2.0921502600000395,
              41.39961427000003
            ],
            [
              2.090756150000061,
              41.39891258000006
            ],
            [
              2.089416520000043,
              41.398153130000026
            ],
            [
              2.088135580000028,
              41.39733829000005
            ],
            [
              2.0869173600000295,
              41.396470640000075
            ],
            [
              2.0857657000000245,
              41.39555291000005
            ],
            [
              2.0846842200000424,
              41.39458799000005
            ],
            [
              2.083676320000052,
              41.39357891000003
            ],
            [
              2.0827451700000665,
              41.39252886000003
            ],
            [
              2.081893710000031,
              41.39144114000004
            ],
            [
              2.0811246000000665,
              41.390319170000055
            ],
            [
              2.080440260000046,
              41.38916648000003
            ],
            [
              2.079842840000026,
              41.387986710000064
            ],
            [
              2.079334230000029,
              41.386783570000034
            ],
            [
              2.0789160000000493,
              41.38556084000004
            ],
            [
              2.078589480000062,
              41.38432237000006
            ],
            [
              2.0783556900000235,
              41.383072060000075
            ],
            [
              2.0782153600000584,
              41.38181384000006
            ],
            [
              2.078168920000053,
              41.38055168000005
            ],
            [
              2.078216510000061,
              41.37928954000006
            ],
            [
              2.078357980000021,
              41.378031400000054
            ],
            [
              2.0785928900000386,
              41.37678121000005
            ],
            [
              2.078920470000071,
              41.37554290000003
            ],
            [
              2.079339710000056,
              41.37432038000003
            ],
            [
              2.079849270000068,
              41.373117480000076
            ],
            [
              2.080447550000031,
              41.37193800000006
            ],
            [
              2.081132650000029,
              41.370785640000065
            ],
            [
              2.0819024300000706,
              41.36966402000007
            ],
            [
              2.0827544600000465,
              41.36857667000004
            ],
            [
              2.08368605000004,
              41.36752702000007
            ],
            [
              2.084694260000049,
              41.36651836000004
            ],
            [
              2.085775940000076,
              41.365553860000034
            ],
            [
              2.0869276600000717,
              41.364636560000065
            ],
            [
              2.0881458200000225,
              41.36376934000003
            ],
            [
              2.0894265600000494,
              41.36295492000005
            ],
            [
              2.090765880000049,
              41.36219588000006
            ],
            [
              2.0921595500000763,
              41.36149459000006
            ],
            [
              2.093603190000067,
              41.36085325000005
            ],
            [
              2.095092260000058,
              41.36027390000004
            ],
            [
              2.0966220800000315,
              41.35975834000004
            ],
            [
              2.098187840000037,
              41.359308190000036
            ],
            [
              2.0997846200000367,
              41.358924880000075
            ],
            [
              2.10140739000002,
              41.35860960000008
            ],
            [
              2.103051060000041,
              41.358363360000055
            ],
            [
              2.1047104600000353,
              41.35818691000003
            ],
            [
              2.1063803800000755,
              41.358080820000055
            ]
          ]
        ]
      },
      "properties": {
        "SHAPE_Area": "25907585.4802717",
        "limitedApplicability": [
          {
            "startDateTime": "",
            "endDateTime": "",
            "schedule": [
              {
                "day": "ANY",
                "startTime": "",
                "startEvent": "",
                "endTime": "",
                "endEvent": ""
              }
            ]
          }
        ],
        "UASZone": {
          "identifier": "LEJC90",
          "country": "ESP",
          "name": "HOTEL REY JUAN CARLOS I",
          "type": "REQ_AUTHORIZATION",
          "variant": "COMMON",
          "restrictionConditions": "",
          "region": "0",
          "reasons": "AIR_TRAFFIC",
          "otherReasonInfo": "",
          "regulationExemption": "No",
          "message": "Se encuentra en la Zona geográfica de UAS General por razón de la seguridad operacional de <elem>HOTEL REY JUAN CARLOS I </elem>, LEJC.<p> Por debajo de 90m medidos desde el punto de referencia del aeródromo (76m), no es necesario coordinar la operación. <p><font color=\"#dc143c\"> Por encima de 90m, medidos desde el punto de referencia del aeródromo (76m), NO permitido el vuelo a drones excepto coordinación con el Helipuerto.</font></p><p> <b>Contacto:</b> Debe contactar con el gestor aeroportuario o responsable de la infraestructura. Información no disponible.</p>",
          "extendedProperties": "Helipuerto"
        },
        "zoneAuthority": [
          {
            "purpose": "AUTHORIZATION",
            "intervalBefore": "",
            "name": "",
            "service": "",
            "contactName": "",
            "siteURL": "",
            "email": "",
            "phone": ""
          }
        ],
        "dataSource": {
          "creationDateTime": "2025-10-01T12:13:45",
          "updateDateTime": "2026-06-08T10:30:47",
          "originator": ""
        },
        "verticalLayer": {
          "upper": 900,
          "upperReference": "AGL",
          "lower": 90,
          "lowerReference": "AGL",
          "UOM": "M"
        },
        "datasetMetadata": {
          "provider": "",
          "issued": "",
          "validFrom": "",
          "validTo": "",
          "description": "",
          "otherGeoid": "",
          "technicalLimitation": ""
        }
      }
    },
    {
      "type": "Feature",
      "geometry": {
        "type": "Polygon",
        "coordinates": [
          [
            [
              -1.3333334899999727,
              41.033333510000034
            ],
            [
              -1.4305556999999567,
              41.033333510000034
            ],
            [
              -1.5277779099999407,
              41.033333510000034
            ],
            [
              -1.6250001199999247,
              41.033333510000034
            ],
            [
              -1.7222223299999655,
              41.033333510000034
            ],
            [
              -1.8194445399999495,
              41.033333510000034
            ],
            [
              -1.9166667499999335,
              41.033333510000034
            ],
            [
              -2.0138889499999664,
              41.033333510000034
            ],
            [
              -2.1111111599999504,
              41.033333510000034
            ],
            [
              -2.2083333699999343,
              41.033333510000034
            ],
            [
              -2.305555579999975,
              41.033333510000034
            ],
            [
              -2.402777789999959,
              41.033333510000034
            ],
            [
              -2.499999999999943,
              41.033333510000034
            ],
            [
              -2.499999999999943,
              41.083333510000045
            ],
            [
              -2.499999999999943,
              41.13333351000006
            ],
            [
              -2.499999999999943,
              41.18333351000007
            ],
            [
              -2.499999999999943,
              41.23333351000008
            ],
            [
              -2.499999999999943,
              41.30000000000007
            ],
            [
              -2.451145419999932,
              41.374877670000046
            ],
            [
              -2.40229082999997,
              41.44975533000007
            ],
            [
              -2.353436249999959,
              41.52463300000005
            ],
            [
              -2.30458165999994,
              41.59951067000003
            ],
            [
              -2.2557270799999287,
              41.674388330000056
            ],
            [
              -2.2068724899999665,
              41.749266000000034
            ],
            [
              -2.1547325799999726,
              41.82736305000003
            ],
            [
              -2.1025926699999786,
              41.905460090000076
            ],
            [
              -2.050452759999928,
              41.98355714000007
            ],
            [
              -1.9983128499999339,
              42.06165419000007
            ],
            [
              -1.94617293999994,
              42.13975123000006
            ],
            [
              -1.8940330399999539,
              42.217848280000055
            ],
            [
              -1.84189312999996,
              42.295945320000044
            ],
            [
              -1.789753219999966,
              42.37404237000004
            ],
            [
              -1.737613309999972,
              42.45213942000004
            ],
            [
              -1.685473399999978,
              42.530236460000026
            ],
            [
              -1.6333334899999272,
              42.60833351000008
            ],
            [
              -1.5465466299999662,
              42.576592220000066
            ],
            [
              -1.4597597799999562,
              42.54485094000006
            ],
            [
              -1.3729729199999383,
              42.51310965000005
            ],
            [
              -1.2861860599999773,
              42.48136837000004
            ],
            [
              -1.1993991999999594,
              42.44962708000003
            ],
            [
              -1.1126123499999494,
              42.41788580000008
            ],
            [
              -1.0258254899999315,
              42.386144510000065
            ],
            [
              -0.9396551299999487,
              42.35394829000006
            ],
            [
              -0.8534847799999739,
              42.32175208000007
            ],
            [
              -0.7673144199999342,
              42.289555860000064
            ],
            [
              -0.6811440699999594,
              42.25735965000007
            ],
            [
              -0.5949737099999766,
              42.225163430000066
            ],
            [
              -0.5088033599999449,
              42.19296722000007
            ],
            [
              -0.42263299999996207,
              42.16077100000007
            ],
            [
              -0.3313044999999306,
              42.12589893000006
            ],
            [
              -0.239975999999956,
              42.091026860000056
            ],
            [
              -0.14864749999992455,
              42.05615479000005
            ],
            [
              -0.057318989999942005,
              42.021282720000045
            ],
            [
              0.034009510000032606,
              41.98641065000004
            ],
            [
              0.12533801000006406,
              41.95153858000003
            ],
            [
              0.21666651000003867,
              41.91666651000003
            ],
            [
              0.19374988000004123,
              41.83124989000004
            ],
            [
              0.17083326000005172,
              41.74583326000004
            ],
            [
              0.14791663000005428,
              41.66041664000005
            ],
            [
              0.12500001000006478,
              41.57500001000005
            ],
            [
              0.10208338000006734,
              41.489583380000056
            ],
            [
              0.07916676000002099,
              41.40416676000007
            ],
            [
              0.056250130000023546,
              41.31875013000007
            ],
            [
              0.03333351000003404,
              41.23333351000008
            ],
            [
              -0.05991091999993614,
              41.21999751000004
            ],
            [
              -0.15315534999996316,
              41.20666151000006
            ],
            [
              -0.24639977999993334,
              41.19332551000008
            ],
            [
              -0.33964419999995243,
              41.17998951000004
            ],
            [
              -0.43288862999997946,
              41.16665351000006
            ],
            [
              -0.5261330599999496,
              41.15331751000008
            ],
            [
              -0.6193774899999767,
              41.13998151000004
            ],
            [
              -0.7086219899999264,
              41.12665051000005
            ],
            [
              -0.797866489999933,
              41.11331951000005
            ],
            [
              -0.8871109899999396,
              41.09998851000006
            ],
            [
              -0.9763554899999463,
              41.086657510000066
            ],
            [
              -1.0655999899999529,
              41.07332651000007
            ],
            [
              -1.1548444899999595,
              41.05999551000008
            ],
            [
              -1.244088989999966,
              41.04666451000003
            ],
            [
              -1.3333334899999727,
              41.033333510000034
            ]
          ]
        ]
      },
      "properties": {
        "SHAPE_Area": "47182935979.5783",
        "limitedApplicability": [
          {
            "startDateTime": "",
            "endDateTime": "",
            "schedule": [
              {
                "day": "ANY",
                "startTime": "",
                "startEvent": "",
                "endTime": "",
                "endEvent": ""
              }
            ]
          }
        ],
        "UASZone": {
          "identifier": "LEZG_TMA",
          "country": "ESP",
          "name": "TMA ZARAGOZA",
          "type": "REQ_AUTHORIZATION",
          "variant": "COMMON",
          "restrictionConditions": "",
          "region": "0",
          "reasons": "AIR_TRAFFIC",
          "otherReasonInfo": "",
          "regulationExemption": "No",
          "message": "Se encuentra en una zona geográfica de UAS general por razón de la seguridad operacional del espacio aéreo controlado <elem>TMA ZARAGOZA.</elem><p><b>Están permitidas las operaciones VLOS a una altura máxima de 60m fuera de las ZGUAS generales por razón de la seguridad operacional en el entorno de los aeródromos</b>.</p><p> Para cualquier otra operación realice su solicitud a través del contacto indicado. Contacto: .</p><p>Nivel inferior: 1000ft AGL</p><p>Nivel superior: FL245</p><p>Notas: Excluyendo el FIZ HUESCA.</p><p>Tenga en cuenta que las altitudes referidas a AMSL son respecto al nivel medio del mar, no respecto al suelo. Debe tener en cuenta la altitud del terreno en el punto que vaya a volar, para saber si esta zona le aplica.</p>",
          "extendedProperties": "TMA"
        },
        "zoneAuthority": [
          {
            "purpose": "AUTHORIZATION",
            "intervalBefore": "",
            "name": "",
            "service": "",
            "contactName": "",
            "siteURL": "",
            "email": "",
            "phone": ""
          }
        ],
        "dataSource": {
          "creationDateTime": "2024-10-01T13:21:29",
          "updateDateTime": "2026-06-08T10:30:47",
          "originator": ""
        },
        "verticalLayer": {
          "upper": 7468,
          "upperReference": "AMSL",
          "lower": 305,
          "lowerReference": "AGL",
          "UOM": "M"
        },
        "datasetMetadata": {
          "provider": "",
          "issued": "",
          "validFrom": "",
          "validTo": "",
          "description": "",
          "otherGeoid": "",
          "technicalLimitation": ""
        }
      }
    }
  ]
}
